description,name,PONAME,ZIP,latitude,POP2001,STATE,AREA,zip2,longitude,SUMBLKPOP,geometry
,Zip:,NATIONAL FOREST/PARK,00072,48.8168,116,WA,1377.85063,72,-121.36,121,"<Polygon><outerBoundaryIs><LinearRing><coordinates>-121.514892,48.642194 -120.752222,48.65759 -120.659844,48.726874 -120.851199,49.000159 -121.949839,49.000159 -121.954238,48.934175 -121.961936,48.644943 -121.729891,48.643293</coordinates></LinearRing></outerBoundaryIs></Polygon>"
,Zip:,AUBURN,98001,47.3091,25888,WA,18.6218,98001,-122.265,25644,"<Polygon><outerBoundaryIs><LinearRing><coordinates>-122.228623,47.271918 -122.226973,47.34615 -122.296257,47.357697 -122.293508,47.257071 -122.262715,47.257621</coordinates></LinearRing></outerBoundaryIs></Polygon>"
,Zip:,LONG ISLAND,00195,46.4502,0,WA,8.3092,195,-123.967,0,
,Zip:,AUBURN,98002,47.3086,30822,WA,7.32723,98002,-122.215,30908,"<Polygon><outerBoundaryIs><LinearRing><coordinates>-122.229173,47.353848 -122.226973,47.34615 -122.228623,47.271918 -122.229723,47.265869 -122.205528,47.343401</coordinates></LinearRing></outerBoundaryIs></Polygon>"
,Zip:,OKANOGAN NATL PARK,00076,48.8402,30,WA,733.72343,76,-120.409,46,"<Polygon><outerBoundaryIs><LinearRing><coordinates>-120.654895,48.522872 -120.454192,48.596555 -120.509729,48.652091 -120.345318,48.86764 -120.074232,48.694431 -119.931816,48.770313 -119.919169,49.000159 -120.851199,49.000159 -120.659844,48.726874 -120.752222,48.65759 -120.701634,48.53167</coordinates></LinearRing></outerBoundaryIs></Polygon>"
,Zip:,FEDERAL WAY,98003,47.3053,41949,WA,11.75271,98003,-122.314,41662,"<Polygon><outerBoundaryIs><LinearRing><coordinates>-122.293508,47.257071 -122.296257,47.357697 -122.312203,47.351649 -122.32485,47.348899 -122.334748,47.342851 -122.335848,47.26367 -122.334748,47.259271</coordinates></LinearRing></outerBoundaryIs></Polygon>"
,Zip:,USDOE HANFORD SITE,00073,46.5168,5,WA,428.0426,73,-119.533,4,"<Polygon><outerBoundaryIs><LinearRing><coordinates>-119.268123,46.409721 -119.486971,46.7116 -119.800397,46.62912 -119.7872,46.444913 -119.591446,46.37453 -119.416038,46.379479 -119.398992,46.370681</coordinates></LinearRing></outerBoundaryIs></Polygon>"
,Zip:,BELLEVUE,98004,47.6187,22434,WA,7.02219,98004,-122.204,22275,"<Polygon><outerBoundaryIs><LinearRing><coordinates>-122.209927,47.648579 -122.233022,47.639231 -122.219825,47.615586 -122.188482,47.578745 -122.187933,47.579295 -122.185733,47.646929</coordinates></LinearRing></outerBoundaryIs></Polygon>"
,Zip:,YAKIMA INDIAN RES,00074,46.2379,500,WA,1583.75693,74,-120.922,428,"<Polygon><outerBoundaryIs><LinearRing><coordinates>-121.446708,46.044608 -121.175072,46.044608 -120.340369,46.041309 -120.331021,46.041309 -120.199603,46.07815 -120.163861,46.222216 -120.225446,46.314044 -120.622453,46.316793 -120.862196,46.327241 -120.859996,46.445463 -120.691186,46.443813 -120.691186,46.448212 -120.544371,46.489453 -120.652146,46.503199 -120.894638,46.519695 -121.423063,46.492752 -121.391171,46.393775 -121.52369,46.388277 -121.52369,46.044058</coordinates></LinearRing></outerBoundaryIs></Polygon>"
,Zip:,BELLEVUE,98005,47.6156,16927,WA,7.51713,98005,-122.169,16999,"<Polygon><outerBoundaryIs><LinearRing><coordinates>-122.153291,47.660676 -122.158789,47.660676 -122.185733,47.646929 -122.187933,47.579295 -122.169237,47.580395</coordinates></LinearRing></outerBoundaryIs></Polygon>"
,Zip:,BELLEVUE,98006,47.5571,35477,WA,10.91765,98006,-122.147,34925,"<Polygon><outerBoundaryIs><LinearRing><coordinates>-122.124148,47.528707 -122.1148,47.572147 -122.135145,47.578745 -122.169237,47.580395 -122.187933,47.579295 -122.188482,47.578745 -122.19673,47.545753 -122.165938,47.537505</coordinates></LinearRing></outerBoundaryIs></Polygon>"
,Zip:,BELLEVUE,98007,47.6144,23324,WA,4.35326,98007,-122.144,23084,"<Polygon><outerBoundaryIs><LinearRing><coordinates>-122.153291,47.660676 -122.169237,47.580395 -122.135145,47.578745 -122.134045,47.631533</coordinates></LinearRing></outerBoundaryIs></Polygon>"
,Zip:,BELLEVUE,98008,47.6051,24059,WA,8.59646,98008,-122.111,24179,"<Polygon><outerBoundaryIs><LinearRing><coordinates>-122.079058,47.628233 -122.134045,47.631533 -122.135145,47.578745 -122.1148,47.572147 -122.090056,47.578195 -122.082357,47.615037</coordinates></LinearRing></outerBoundaryIs></Polygon>"
,Zip:,BLACK DIAMOND,98010,47.3208,4682,WA,18.11935,98010,-121.995,4590,"<Polygon><outerBoundaryIs><LinearRing><coordinates>-122.016373,47.3456 -122.053764,47.3478 -122.040018,47.310958 -121.989429,47.286764 -121.937742,47.322506</coordinates></LinearRing></outerBoundaryIs></Polygon>"
,Zip:,BOTHELL,98011,47.7531,26786,WA,8.17754,98011,-122.201,26697,"<Polygon><outerBoundaryIs><LinearRing><coordinates>-122.175286,47.737108 -122.169237,47.776148 -122.233022,47.776698 -122.245119,47.731609</coordinates></LinearRing></outerBoundaryIs></Polygon>"
,Zip:,BOTHELL,98012,47.841,41902,WA,15.25474,98012,-122.2,39244,"<Polygon><outerBoundaryIs><LinearRing><coordinates>-122.169787,47.866327 -122.185183,47.877874 -122.228073,47.865227 -122.243469,47.829486 -122.237421,47.816839 -122.164838,47.808591 -122.162639,47.814639 -122.152741,47.85368</coordinates></LinearRing></outerBoundaryIs></Polygon>"
,Zip:,CARNATION,98014,47.6588,7041,WA,41.15686,98014,-121.905,6862,"<Polygon><outerBoundaryIs><LinearRing><coordinates>-122.005926,47.709064 -121.961386,47.60129 -121.831617,47.694218</coordinates></LinearRing></outerBoundaryIs></Polygon>"
,Zip:,DUVALL,98019,47.738,8411,WA,103.58354,98019,-121.794,8188,"<Polygon><outerBoundaryIs><LinearRing><coordinates>-121.666656,47.773949 -121.838215,47.776148 -122.000427,47.775049 -122.013624,47.709064 -122.005926,47.709064 -121.831617,47.694218 -121.590224,47.706865 -121.584725,47.776698</coordinates></LinearRing></outerBoundaryIs></Polygon>"
,Zip:,EDMONDS,98020,47.7998,18578,WA,5.20621,98020,-122.373,18184,"<Polygon><outerBoundaryIs><LinearRing><coordinates>-122.364441,47.830036 -122.395234,47.777798 -122.361142,47.777798 -122.356193,47.777798</coordinates></LinearRing></outerBoundaryIs></Polygon>"
,Zip:,BOTHELL,98021,47.7924,21673,WA,10.11144,98021,-122.208,22481,"<Polygon><outerBoundaryIs><LinearRing><coordinates>-122.237421,47.816839 -122.266564,47.777248 -122.233022,47.776698 -122.169237,47.776148 -122.164838,47.808591</coordinates></LinearRing></outerBoundaryIs></Polygon>"
,Zip:,ENUMCLAW,98022,47.1746,22309,WA,556.89213,98022,-121.642,21865,"<Polygon><outerBoundaryIs><LinearRing><coordinates>-121.338383,47.273567 -121.43516,47.293912 -121.824468,47.369245 -121.937742,47.322506 -121.989429,47.286764 -122.123598,47.238925 -121.585275,47.075064 -121.554482,46.783633 -121.532487,46.783633 -121.455506,46.783633 -121.52204,46.874362 -121.379624,47.086611</coordinates></LinearRing></outerBoundaryIs></Polygon>"
,Zip:,FEDERAL WAY,98023,47.3093,49272,WA,10.92283,98023,-122.363,48611,"<Polygon><outerBoundaryIs><LinearRing><coordinates>-122.334748,47.342851 -122.419428,47.321406 -122.335848,47.26367</coordinates></LinearRing></outerBoundaryIs></Polygon>"
,Zip:,FALL CITY,98024,47.6275,4701,WA,91.32541,98024,-121.785,4683,"<Polygon><outerBoundaryIs><LinearRing><coordinates>-121.897051,47.522109 -121.672704,47.64418 -121.586375,47.636481 -121.584725,47.704115 -121.590224,47.706865 -121.831617,47.694218 -121.961386,47.60129 -121.961386,47.60019 -121.970184,47.555651</coordinates></LinearRing></outerBoundaryIs></Polygon>"
,Zip:,EDMONDS,98026,47.8354,35605,WA,9.52067,98026,-122.332,35903,"<Polygon><outerBoundaryIs><LinearRing><coordinates>-122.330899,47.828936 -122.291308,47.874575 -122.3276,47.893821 -122.364441,47.830036 -122.356193,47.777798 -122.329799,47.777798 -122.3265,47.777798 -122.329249,47.803092</coordinates></LinearRing></outerBoundaryIs></Polygon>"
,Zip:,ISSAQUAH,98027,47.4914,24852,WA,83.69887,98027,-121.972,24526,"<Polygon><outerBoundaryIs><LinearRing><coordinates>-121.925095,47.414884 -121.847013,47.427531 -121.844814,47.51386 -121.897051,47.522109 -121.970184,47.555651 -122.081258,47.575446 -122.090056,47.578195 -122.1148,47.572147 -122.124148,47.528707 -122.054314,47.463822</coordinates></LinearRing></outerBoundaryIs></Polygon>"
,Zip:,KENMORE,98028,47.7554,18763,WA,5.71021,98028,-122.244,18437,"<Polygon><outerBoundaryIs><LinearRing><coordinates>-122.264914,47.734358 -122.245119,47.731609 -122.233022,47.776698 -122.266564,47.777248 -122.271513,47.777248 -122.261615,47.758003</coordinates></LinearRing></outerBoundaryIs></Polygon>"
,Zip:,ISSAQUAH,98029,47.561,15022,WA,11.06006,98029,-122.009,14440,"<Polygon><outerBoundaryIs><LinearRing><coordinates>-121.961386,47.60019 -121.972933,47.60019 -122.081258,47.575446 -121.970184,47.555651</coordinates></LinearRing></outerBoundaryIs></Polygon>"
,Zip:,KENT,98031,47.3857,66020,WA,16.62195,98031,-122.197,65403,"<Polygon><outerBoundaryIs><LinearRing><coordinates>-122.186283,47.426431 -122.219825,47.441278 -122.229173,47.353848 -122.205528,47.343401 -122.165388,47.3456 -122.161539,47.419283</coordinates></LinearRing></outerBoundaryIs></Polygon>"
,Zip:,KENT,98032,47.3907,30728,WA,17.92806,98032,-122.261,30042,"<Polygon><outerBoundaryIs><LinearRing><coordinates>-122.296257,47.357697 -122.226973,47.34615 -122.229173,47.353848 -122.219825,47.441278 -122.24182,47.441278 -122.286359,47.421482 -122.312203,47.351649</coordinates></LinearRing></outerBoundaryIs></Polygon>"
,Zip:,KIRKLAND,98033,47.6756,31043,WA,9.11319,98033,-122.187,30751,"<Polygon><outerBoundaryIs><LinearRing><coordinates>-122.158789,47.660676 -122.164288,47.701916 -122.210477,47.700816 -122.209927,47.648579 -122.185733,47.646929</coordinates></LinearRing></outerBoundaryIs></Polygon>"
,Zip:,KIRKLAND,98034,47.7178,40040,WA,9.26871,98034,-122.206,39885,"<Polygon><outerBoundaryIs><LinearRing><coordinates>-122.175286,47.737108 -122.245119,47.731609 -122.264914,47.734358 -122.210477,47.700816 -122.164288,47.701916 -122.153291,47.732709</coordinates></LinearRing></outerBoundaryIs></Polygon>"
,Zip:,LYNNWOOD,98036,47.8109,33494,WA,9.5836,98036,-122.282,32756,"<Polygon><outerBoundaryIs><LinearRing><coordinates>-122.266564,47.777248 -122.237421,47.816839 -122.243469,47.829486 -122.330899,47.828936 -122.329249,47.803092 -122.287459,47.777248 -122.271513,47.777248</coordinates></LinearRing></outerBoundaryIs></Polygon>"
,Zip:,LYNNWOOD,98037,47.8514,41132,WA,11.48701,98037,-122.276,41445,"<Polygon><outerBoundaryIs><LinearRing><coordinates>-122.228073,47.865227 -122.244569,47.871276 -122.28416,47.888322 -122.291308,47.874575 -122.330899,47.828936 -122.243469,47.829486</coordinates></LinearRing></outerBoundaryIs></Polygon>"
,Zip:,MAPLE VALLEY,98038,47.4043,22209,WA,31.14556,98038,-122.02,21898,"<Polygon><outerBoundaryIs><LinearRing><coordinates>-122.016373,47.3456 -121.925095,47.414884 -122.054314,47.463822 -122.076309,47.454474 -122.088406,47.393989 -122.053764,47.3478</coordinates></LinearRing></outerBoundaryIs></Polygon>"
,Zip:,MEDINA,98039,47.6255,3006,WA,1.43553,98039,-122.234,2974,
,Zip:,MERCER ISLAND,98040,47.5627,21999,WA,6.34909,98040,-122.227,21946,
,Zip:,KENT,98042,47.3602,38605,WA,29.43027,98042,-122.112,37967,"<Polygon><outerBoundaryIs><LinearRing><coordinates>-122.053764,47.3478 -122.088406,47.393989 -122.161539,47.419283 -122.165388,47.3456 -122.040018,47.310958</coordinates></LinearRing></outerBoundaryIs></Polygon>"
,Zip:,MOUNTLAKE TERRACE,98043,47.792,20590,WA,4.14445,98043,-122.308,20404,"<Polygon><outerBoundaryIs><LinearRing><coordinates>-122.329249,47.803092 -122.3265,47.777798 -122.287459,47.777248</coordinates></LinearRing></outerBoundaryIs></Polygon>"
,Zip:,NORTH BEND,98045,47.4519,14007,WA,317.68041,98045,-121.605,13770,"<Polygon><outerBoundaryIs><LinearRing><coordinates>-121.43516,47.293912 -121.430212,47.420383 -121.243256,47.540254 -121.597372,47.533656 -121.586375,47.636481 -121.672704,47.64418 -121.844814,47.51386 -121.847013,47.427531 -121.824468,47.369245</coordinates></LinearRing></outerBoundaryIs></Polygon>"
,Zip:,PACIFIC,98047,47.2617,4985,WA,2.14708,98047,-122.248,4920,"<Polygon><outerBoundaryIs><LinearRing><coordinates>-122.228623,47.271918 -122.262715,47.257621 -122.229723,47.257071 -122.229723,47.265869</coordinates></LinearRing></outerBoundaryIs></Polygon>"
,Zip:,RAVENSDALE,98051,47.3642,2810,WA,45.55619,98051,-121.903,2763,"<Polygon><outerBoundaryIs><LinearRing><coordinates>-121.937742,47.322506 -121.824468,47.369245 -121.847013,47.427531 -121.925095,47.414884 -122.016373,47.3456</coordinates></LinearRing></outerBoundaryIs></Polygon>"
,Zip:,REDMOND,98052,47.6814,51001,WA,20.57838,98052,-122.122,50024,"<Polygon><outerBoundaryIs><LinearRing><coordinates>-122.086756,47.702466 -122.153291,47.732709 -122.164288,47.701916 -122.158789,47.660676 -122.153291,47.660676 -122.134045,47.631533 -122.079058,47.628233 -122.087306,47.657377</coordinates></LinearRing></outerBoundaryIs></Polygon>"
,Zip:,REDMOND,98053,47.6626,12152,WA,28.88583,98053,-122.019,11413,"<Polygon><outerBoundaryIs><LinearRing><coordinates>-121.961386,47.60129 -122.005926,47.709064 -122.013624,47.709064 -122.086756,47.702466 -122.087306,47.657377 -122.016373,47.60129 -121.972933,47.60019 -121.961386,47.60019</coordinates></LinearRing></outerBoundaryIs></Polygon>"
,Zip:,RENTON,98055,47.4628,28238,WA,11.48673,98055,-122.212,27633,"<Polygon><outerBoundaryIs><LinearRing><coordinates>-122.219825,47.441278 -122.186283,47.426431 -122.179684,47.477019 -122.203879,47.504513 -122.218725,47.500664 -122.250068,47.47372 -122.24182,47.441278</coordinates></LinearRing></outerBoundaryIs></Polygon>"
,Zip:,RENTON,98056,47.5107,27363,WA,7.59032,98056,-122.182,27141,"<Polygon><outerBoundaryIs><LinearRing><coordinates>-122.19673,47.545753 -122.203879,47.504513 -122.179684,47.477019 -122.153841,47.47152 -122.165938,47.537505</coordinates></LinearRing></outerBoundaryIs></Polygon>"
,Zip:,RENTON,98058,47.4388,38590,WA,22.03869,98058,-122.123,37293,"<Polygon><outerBoundaryIs><LinearRing><coordinates>-122.161539,47.419283 -122.088406,47.393989 -122.076309,47.454474 -122.153841,47.47152 -122.179684,47.477019 -122.186283,47.426431</coordinates></LinearRing></outerBoundaryIs></Polygon>"
,Zip:,RENTON,98059,47.4961,22871,WA,16.17721,98059,-122.124,22901,"<Polygon><outerBoundaryIs><LinearRing><coordinates>-122.054314,47.463822 -122.124148,47.528707 -122.165938,47.537505 -122.153841,47.47152 -122.076309,47.454474</coordinates></LinearRing></outerBoundaryIs></Polygon>"
,Zip:,SNOQUALMIE,98065,47.5694,4021,WA,41.70849,98065,-121.762,3968,"<Polygon><outerBoundaryIs><LinearRing><coordinates>-121.844814,47.51386 -121.672704,47.64418 -121.897051,47.522109</coordinates></LinearRing></outerBoundaryIs></Polygon>"
,Zip:,VASHON,98070,47.4125,10130,WA,37.32258,98070,-122.472,10109,"<Polygon><outerBoundaryIs><LinearRing><coordinates>-122.373239,47.38739 -122.474415,47.511661 -122.492011,47.329654</coordinates></LinearRing></outerBoundaryIs></Polygon>"
,Zip:,WOODINVILLE,98072,47.7556,36289,WA,37.04491,98072,-122.091,34938,"<Polygon><outerBoundaryIs><LinearRing><coordinates>-122.000427,47.775049 -122.018023,47.775599 -122.162639,47.814639 -122.164838,47.808591 -122.169237,47.776148 -122.175286,47.737108 -122.153291,47.732709 -122.086756,47.702466 -122.013624,47.709064</coordinates></LinearRing></outerBoundaryIs></Polygon>"
,Zip:,SAMMAMISH,98074,47.6257,20481,WA,10.43293,98074,-122.048,20306,"<Polygon><outerBoundaryIs><LinearRing><coordinates>-122.087306,47.657377 -122.079058,47.628233 -122.082357,47.615037 -122.016373,47.60129</coordinates></LinearRing></outerBoundaryIs></Polygon>"
,Zip:,SAMMAMISH,98075,47.5883,14238,WA,11.12586,98075,-122.04,13771,"<Polygon><outerBoundaryIs><LinearRing><coordinates>-122.081258,47.575446 -121.972933,47.60019 -122.016373,47.60129 -122.082357,47.615037 -122.090056,47.578195</coordinates></LinearRing></outerBoundaryIs></Polygon>"
,Zip:,AUBURN,98092,47.2874,26968,WA,41.84383,98092,-122.126,25777,"<Polygon><outerBoundaryIs><LinearRing><coordinates>-122.123598,47.238925 -121.989429,47.286764 -122.040018,47.310958 -122.165388,47.3456 -122.205528,47.343401 -122.229723,47.265869 -122.229723,47.257071 -122.132396,47.243324</coordinates></LinearRing></outerBoundaryIs></Polygon>"
,Zip:,SEATTLE,98101,47.6113,9300,WA,0.51476,98101,-122.334,9099,"<Polygon><outerBoundaryIs><LinearRing><coordinates>-122.338597,47.603489 -122.321551,47.611737 -122.328149,47.618336 -122.328699,47.618336 -122.333098,47.618336 -122.345745,47.608438</coordinates></LinearRing></outerBoundaryIs></Polygon>"
,Zip:,SEATTLE,98102,47.6343,20512,WA,1.47585,98102,-122.322,20387,"<Polygon><outerBoundaryIs><LinearRing><coordinates>-122.328149,47.618336 -122.314403,47.618886 -122.310554,47.64253 -122.330349,47.633182 -122.328699,47.618336</coordinates></LinearRing></outerBoundaryIs></Polygon>"
,Zip:,SEATTLE,98103,47.6742,42081,WA,5.07325,98103,-122.343,41956,"<Polygon><outerBoundaryIs><LinearRing><coordinates>-122.330349,47.701366 -122.357842,47.701366 -122.357293,47.676072 -122.359492,47.652428 -122.3265,47.652428 -122.328149,47.672223</coordinates></LinearRing></outerBoundaryIs></Polygon>"
,Zip:,SEATTLE,98104,47.6017,13338,WA,0.8026,98104,-122.328,13119,"<Polygon><outerBoundaryIs><LinearRing><coordinates>-122.321551,47.611737 -122.338597,47.603489 -122.337497,47.59909 -122.317152,47.595791 -122.317702,47.60184</coordinates></LinearRing></outerBoundaryIs></Polygon>"
,Zip:,SEATTLE,98105,47.664,37395,WA,3.29508,98105,-122.296,37196,"<Polygon><outerBoundaryIs><LinearRing><coordinates>-122.312203,47.649678 -122.286909,47.655177 -122.253367,47.671123 -122.328149,47.672223 -122.3265,47.652428</coordinates></LinearRing></outerBoundaryIs></Polygon>"
,Zip:,SEATTLE,98106,47.5414,23243,WA,5.4178,98106,-122.353,23051,"<Polygon><outerBoundaryIs><LinearRing><coordinates>-122.345745,47.569397 -122.346295,47.569397 -122.349044,47.569397 -122.361691,47.580945 -122.36609,47.51716 -122.334198,47.519359 -122.338597,47.549602</coordinates></LinearRing></outerBoundaryIs></Polygon>"
,Zip:,SEATTLE,98107,47.6682,19161,WA,2.2048,98107,-122.377,19133,"<Polygon><outerBoundaryIs><LinearRing><coordinates>-122.359492,47.652428 -122.357293,47.676072 -122.41118,47.677722</coordinates></LinearRing></outerBoundaryIs></Polygon>"
,Zip:,SEATTLE,98108,47.5416,21594,WA,7.73197,98108,-122.313,21704,"<Polygon><outerBoundaryIs><LinearRing><coordinates>-122.291858,47.513311 -122.292408,47.567748 -122.319901,47.573246 -122.338597,47.549602 -122.334198,47.519359 -122.334198,47.51386</coordinates></LinearRing></outerBoundaryIs></Polygon>"
,Zip:,SEATTLE,98109,47.631,14954,WA,1.97257,98109,-122.346,14855,"<Polygon><outerBoundaryIs><LinearRing><coordinates>-122.330349,47.633182 -122.356743,47.650228 -122.356743,47.618336 -122.333098,47.618336 -122.328699,47.618336</coordinates></LinearRing></outerBoundaryIs></Polygon>"
,Zip:,BAINBRIDGE ISLAND,98110,47.6445,20476,WA,29.19103,98110,-122.537,20308,
,Zip:,SEATTLE,98112,47.6321,19616,WA,3.04533,98112,-122.296,19674,"<Polygon><outerBoundaryIs><LinearRing><coordinates>-122.310554,47.64253 -122.314403,47.618886 -122.280311,47.618336</coordinates></LinearRing></outerBoundaryIs></Polygon>"
,Zip:,SEATTLE,98115,47.6855,43059,WA,6.59948,98115,-122.293,42929,"<Polygon><outerBoundaryIs><LinearRing><coordinates>-122.272613,47.697517 -122.330349,47.701366 -122.328149,47.672223 -122.253367,47.671123</coordinates></LinearRing></outerBoundaryIs></Polygon>"
,Zip:,SEATTLE,98116,47.5739,20710,WA,2.95565,98116,-122.395,20399,"<Polygon><outerBoundaryIs><LinearRing><coordinates>-122.375438,47.585893 -122.404581,47.560599 -122.381487,47.5573</coordinates></LinearRing></outerBoundaryIs></Polygon>"
,Zip:,SEATTLE,98117,47.6883,29495,WA,3.78471,98117,-122.381,29382,"<Polygon><outerBoundaryIs><LinearRing><coordinates>-122.357842,47.701366 -122.393034,47.701366 -122.41118,47.677722 -122.357293,47.676072</coordinates></LinearRing></outerBoundaryIs></Polygon>"
,Zip:,SEATTLE,98118,47.5393,40640,WA,6.29188,98118,-122.275,40727,"<Polygon><outerBoundaryIs><LinearRing><coordinates>-122.280311,47.573796 -122.292408,47.567748 -122.291858,47.513311 -122.28526,47.510011 -122.236321,47.510011</coordinates></LinearRing></outerBoundaryIs></Polygon>"
,Zip:,SEATTLE,98119,47.639,20847,WA,2.51937,98119,-122.369,20801,"<Polygon><outerBoundaryIs><LinearRing><coordinates>-122.360592,47.618336 -122.356743,47.618336 -122.356743,47.650228 -122.377638,47.655727 -122.389185,47.630433</coordinates></LinearRing></outerBoundaryIs></Polygon>"
,Zip:,SEATTLE,98121,47.6153,8913,WA,0.46429,98121,-122.346,8603,"<Polygon><outerBoundaryIs><LinearRing><coordinates>-122.345745,47.608438 -122.333098,47.618336 -122.356743,47.618336 -122.360592,47.618336</coordinates></LinearRing></outerBoundaryIs></Polygon>"
,Zip:,SEATTLE,98122,47.6106,28029,WA,2.24851,98122,-122.303,27887,"<Polygon><outerBoundaryIs><LinearRing><coordinates>-122.280311,47.618336 -122.314403,47.618886 -122.328149,47.618336 -122.321551,47.611737 -122.317702,47.60184 -122.28471,47.60184</coordinates></LinearRing></outerBoundaryIs></Polygon>"
,Zip:,SEATTLE,98125,47.7169,35221,WA,5.37811,98125,-122.304,34636,"<Polygon><outerBoundaryIs><LinearRing><coordinates>-122.28361,47.732709 -122.328699,47.734358 -122.330349,47.701366 -122.272613,47.697517</coordinates></LinearRing></outerBoundaryIs></Polygon>"
,Zip:,SEATTLE,98126,47.55,19523,WA,3.48371,98126,-122.374,19779,"<Polygon><outerBoundaryIs><LinearRing><coordinates>-122.36609,47.51716 -122.361691,47.580945 -122.375438,47.585893 -122.381487,47.5573 -122.382037,47.51386</coordinates></LinearRing></outerBoundaryIs></Polygon>"
,Zip:,SEATTLE,98133,47.7395,43302,WA,6.99442,98133,-122.344,42734,"<Polygon><outerBoundaryIs><LinearRing><coordinates>-122.330349,47.701366 -122.328699,47.734358 -122.329799,47.777798 -122.356193,47.777798 -122.361142,47.777798 -122.357842,47.701366</coordinates></LinearRing></outerBoundaryIs></Polygon>"
,Zip:,SEATTLE,98134,47.5775,1357,WA,3.50049,98134,-122.337,1350,"<Polygon><outerBoundaryIs><LinearRing><coordinates>-122.345745,47.569397 -122.338597,47.549602 -122.319901,47.573246 -122.317152,47.595791 -122.337497,47.59909</coordinates></LinearRing></outerBoundaryIs></Polygon>"
,Zip:,SEATTLE,98136,47.5368,13784,WA,2.23152,98136,-122.39,13800,"<Polygon><outerBoundaryIs><LinearRing><coordinates>-122.381487,47.5573 -122.404581,47.560599 -122.395234,47.511661 -122.382037,47.51386</coordinates></LinearRing></outerBoundaryIs></Polygon>"
,Zip:,SEATTLE,98144,47.5852,25239,WA,3.40986,98144,-122.301,24935,"<Polygon><outerBoundaryIs><LinearRing><coordinates>-122.319901,47.573246 -122.292408,47.567748 -122.280311,47.573796 -122.28471,47.60184 -122.317702,47.60184 -122.317152,47.595791</coordinates></LinearRing></outerBoundaryIs></Polygon>"
,Zip:,SEATTLE,98146,47.5009,25457,WA,4.57879,98146,-122.357,25724,"<Polygon><outerBoundaryIs><LinearRing><coordinates>-122.361691,47.485267 -122.333648,47.481418 -122.334198,47.51386 -122.334198,47.519359 -122.36609,47.51716 -122.382037,47.51386 -122.395234,47.511661</coordinates></LinearRing></outerBoundaryIs></Polygon>"
,Zip:,SEATTLE,98148,47.4441,8749,WA,2.87333,98148,-122.324,8644,"<Polygon><outerBoundaryIs><LinearRing><coordinates>-122.307804,47.422582 -122.304505,47.434679 -122.312753,47.465472 -122.313303,47.470421 -122.334198,47.468771 -122.335298,47.423132</coordinates></LinearRing></outerBoundaryIs></Polygon>"
,Zip:,SEATTLE,98155,47.7571,33348,WA,7.60662,98155,-122.302,33351,"<Polygon><outerBoundaryIs><LinearRing><coordinates>-122.328699,47.734358 -122.28361,47.732709 -122.261615,47.758003 -122.271513,47.777248 -122.287459,47.777248 -122.3265,47.777798 -122.329799,47.777798</coordinates></LinearRing></outerBoundaryIs></Polygon>"
,Zip:,SEATTLE,98158,47.4499,1,WA,2.28934,98158,-122.307,1,
,Zip:,SEATTLE,98166,47.453,21631,WA,6.09033,98166,-122.35,21145,"<Polygon><outerBoundaryIs><LinearRing><coordinates>-122.335298,47.408835 -122.335298,47.423132 -122.334198,47.468771 -122.333648,47.481418 -122.361691,47.485267</coordinates></LinearRing></outerBoundaryIs></Polygon>"
,Zip:,SEATTLE,98168,47.4887,30945,WA,9.0811,98168,-122.301,30786,"<Polygon><outerBoundaryIs><LinearRing><coordinates>-122.334198,47.468771 -122.313303,47.470421 -122.252267,47.47427 -122.28526,47.510011 -122.291858,47.513311 -122.334198,47.51386 -122.333648,47.481418</coordinates></LinearRing></outerBoundaryIs></Polygon>"
,Zip:,SEATTLE,98177,47.743,18421,WA,5.77408,98177,-122.37,18776,"<Polygon><outerBoundaryIs><LinearRing><coordinates>-122.393034,47.701366 -122.357842,47.701366 -122.361142,47.777798 -122.395234,47.777798</coordinates></LinearRing></outerBoundaryIs></Polygon>"
,Zip:,SEATTLE,98178,47.4966,21526,WA,4.96459,98178,-122.251,20737,"<Polygon><outerBoundaryIs><LinearRing><coordinates>-122.218725,47.500664 -122.236321,47.510011 -122.28526,47.510011 -122.252267,47.47427 -122.250068,47.47372</coordinates></LinearRing></outerBoundaryIs></Polygon>"
,Zip:,SEATTLE,98188,47.4483,22182,WA,7.46767,98188,-122.273,21856,"<Polygon><outerBoundaryIs><LinearRing><coordinates>-122.307804,47.422582 -122.286359,47.421482 -122.24182,47.441278 -122.250068,47.47372 -122.252267,47.47427 -122.313303,47.470421 -122.312753,47.465472 -122.304505,47.434679</coordinates></LinearRing></outerBoundaryIs></Polygon>"
,Zip:,SEATTLE,98195,47.655,2180,WA,0.86297,98195,-122.302,2182,
,Zip:,SEATTLE,98198,47.3964,31638,WA,6.7745,98198,-122.313,31504,"<Polygon><outerBoundaryIs><LinearRing><coordinates>-122.286359,47.421482 -122.307804,47.422582 -122.335298,47.423132 -122.335298,47.408835 -122.32485,47.348899 -122.312203,47.351649</coordinates></LinearRing></outerBoundaryIs></Polygon>"
,Zip:,SEATTLE,98199,47.6512,19206,WA,4.32768,98199,-122.403,19156,
,Zip:,EVERETT,98201,47.9903,28464,WA,7.37213,98201,-122.2,30286,"<Polygon><outerBoundaryIs><LinearRing><coordinates>-122.207728,48.02194 -122.230273,47.970802 -122.19673,47.963654</coordinates></LinearRing></outerBoundaryIs></Polygon>"
,Zip:,EVERETT,98203,47.9418,32804,WA,11.81766,98203,-122.238,32183,"<Polygon><outerBoundaryIs><LinearRing><coordinates>-122.228073,47.921864 -122.192331,47.947158 -122.19673,47.963654 -122.230273,47.970802 -122.291308,47.952107 -122.279761,47.922414</coordinates></LinearRing></outerBoundaryIs></Polygon>"
,Zip:,EVERETT,98204,47.9018,32212,WA,7.80979,98204,-122.261,30907,"<Polygon><outerBoundaryIs><LinearRing><coordinates>-122.279761,47.922414 -122.28416,47.888322 -122.244569,47.871276 -122.228073,47.921864</coordinates></LinearRing></outerBoundaryIs></Polygon>"
,Zip:,EVERETT,98205,47.9945,17349,WA,25.60957,98205,-122.136,16477,"<Polygon><outerBoundaryIs><LinearRing><coordinates>-122.173636,47.943309 -122.055964,47.978501 -122.098304,48.06538 -122.111501,48.071979 -122.149992,48.015892 -122.207728,48.02194 -122.19673,47.963654 -122.192331,47.947158 -122.185733,47.947708</coordinates></LinearRing></outerBoundaryIs></Polygon>"
,Zip:,EVERETT,98208,47.9002,46927,WA,16.07396,98208,-122.186,45411,"<Polygon><outerBoundaryIs><LinearRing><coordinates>-122.228073,47.865227 -122.185183,47.877874 -122.169787,47.866327 -122.152741,47.85368 -122.185733,47.947708 -122.192331,47.947158 -122.228073,47.921864 -122.244569,47.871276</coordinates></LinearRing></outerBoundaryIs></Polygon>"
,Zip:,ACME,98220,48.678,524,WA,16.32367,98220,-122.19,512,"<Polygon><outerBoundaryIs><LinearRing><coordinates>-122.262165,48.709278 -122.268214,48.707628 -122.121398,48.646043</coordinates></LinearRing></outerBoundaryIs></Polygon>"
,Zip:,ANACORTES,98221,48.5095,18991,WA,59.73131,98221,-122.665,18721,"<Polygon><outerBoundaryIs><LinearRing><coordinates>-122.516755,48.458537 -122.702061,48.497578 -122.554696,48.44479 -122.515655,48.455788</coordinates></LinearRing></outerBoundaryIs></Polygon>"
,Zip:,ARLINGTON,98223,48.2068,36244,WA,339.83283,98223,-121.951,35260,"<Polygon><outerBoundaryIs><LinearRing><coordinates>-122.098304,48.06538 -122.046616,48.093973 -121.667755,48.124766 -121.636413,48.298525 -121.935542,48.297975 -122.226423,48.297425 -122.265464,48.139063 -122.11205,48.091774 -122.111501,48.071979</coordinates></LinearRing></outerBoundaryIs></Polygon>"
,Zip:,BARING,98224,47.7416,296,WA,53.15852,98224,-121.474,293,"<Polygon><outerBoundaryIs><LinearRing><coordinates>-121.584725,47.704115 -121.377424,47.779998 -121.506644,47.777798 -121.584725,47.776698 -121.590224,47.706865</coordinates></LinearRing></outerBoundaryIs></Polygon>"
,Zip:,BELLINGHAM,98225,48.7527,42932,WA,12.46421,98225,-122.501,42279,"<Polygon><outerBoundaryIs><LinearRing><coordinates>-122.507957,48.69828 -122.463417,48.770863 -122.564044,48.779111</coordinates></LinearRing></outerBoundaryIs></Polygon>"
,Zip:,BELLINGHAM,98226,48.765,57521,WA,166.73211,98226,-122.421,56432,"<Polygon><outerBoundaryIs><LinearRing><coordinates>-122.488711,48.645493 -122.344645,48.618549 -122.332548,48.620199 -122.268214,48.707628 -122.262165,48.709278 -122.276462,48.839597 -122.442522,48.86984 -122.507957,48.887986 -122.66357,48.793408 -122.650373,48.715326 -122.564044,48.779111 -122.463417,48.770863 -122.507957,48.69828</coordinates></LinearRing></outerBoundaryIs></Polygon>"
,Zip:,BLAINE,98230,48.9481,11279,WA,45.94954,98230,-122.705,10773,"<Polygon><outerBoundaryIs><LinearRing><coordinates>-122.551946,48.983663 -122.550847,49.002359 -122.794989,48.976515 -122.737253,48.857743 -122.691064,48.922627</coordinates></LinearRing></outerBoundaryIs></Polygon>"
,Zip:,BOW,98232,48.5608,3468,WA,56.37318,98232,-122.413,3443,"<Polygon><outerBoundaryIs><LinearRing><coordinates>-122.344645,48.618549 -122.488711,48.645493 -122.457369,48.555864 -122.558545,48.57456 -122.476064,48.519023 -122.444722,48.486581</coordinates></LinearRing></outerBoundaryIs></Polygon>"
,Zip:,BURLINGTON,98233,48.5049,12820,WA,32.06262,98233,-122.343,12549,"<Polygon><outerBoundaryIs><LinearRing><coordinates>-122.344645,48.618549 -122.444722,48.486581 -122.280311,48.475033 -122.332548,48.620199</coordinates></LinearRing></outerBoundaryIs></Polygon>"
,Zip:,CLINTON,98236,47.9582,5445,WA,23.08262,98236,-122.405,5343,"<Polygon><outerBoundaryIs><LinearRing><coordinates>-122.377088,47.905368 -122.370489,47.997196 -122.481013,47.996096</coordinates></LinearRing></outerBoundaryIs></Polygon>"
,Zip:,CONCRETE,98237,48.4496,4274,WA,533.14124,98237,-121.456,4087,"<Polygon><outerBoundaryIs><LinearRing><coordinates>-121.001313,48.295776 -121.062898,48.459637 -121.419214,48.518473 -121.4808,48.420046 -121.603971,48.486581 -121.449457,48.527271 -121.514892,48.642194 -121.729891,48.643293 -121.930593,48.516274 -121.636963,48.408499 -121.636413,48.298525</coordinates></LinearRing></outerBoundaryIs></Polygon>"
,Zip:,COUPEVILLE,98239,48.1925,5873,WA,30.82996,98239,-122.661,5825,"<Polygon><outerBoundaryIs><LinearRing><coordinates>-122.600335,48.120367 -122.573391,48.154459 -122.729555,48.231991 -122.759797,48.245188</coordinates></LinearRing></outerBoundaryIs></Polygon>"
,Zip:,CUSTER,98240,48.95,2976,WA,24.21468,98240,-122.617,3016,"<Polygon><outerBoundaryIs><LinearRing><coordinates>-122.551946,48.983663 -122.691064,48.922627 -122.551946,48.935274</coordinates></LinearRing></outerBoundaryIs></Polygon>"
,Zip:,DARRINGTON,98241,48.1601,1940,WA,568.88198,98241,-121.293,1906,"<Polygon><outerBoundaryIs><LinearRing><coordinates>-121.001313,48.295776 -121.636413,48.298525 -121.667755,48.124766 -121.453306,48.124766 -121.451657,47.968603 -121.147029,47.98125 -120.906186,48.163807</coordinates></LinearRing></outerBoundaryIs></Polygon>"
,Zip:,DEMING,98244,48.7962,2229,WA,213.87553,98244,-122.1,2399,"<Polygon><outerBoundaryIs><LinearRing><coordinates>-122.121398,48.646043 -121.961936,48.644943 -121.954238,48.934175 -122.077959,48.924277 -122.185733,48.918228 -122.225324,48.897333 -122.276462,48.839597 -122.262165,48.709278</coordinates></LinearRing></outerBoundaryIs></Polygon>"
,Zip:,EASTSOUND,98245,48.6533,3307,WA,41.52662,98245,-122.944,3576,"<Polygon><outerBoundaryIs><LinearRing><coordinates>-123.031433,48.627347 -122.868122,48.647143 -122.884618,48.712027</coordinates></LinearRing></outerBoundaryIs></Polygon>"
,Zip:,EVERSON,98247,48.903,8287,WA,64.79762,98247,-122.311,7945,"<Polygon><outerBoundaryIs><LinearRing><coordinates>-122.276462,48.839597 -122.225324,48.897333 -122.330899,48.982013 -122.442522,48.86984</coordinates></LinearRing></outerBoundaryIs></Polygon>"
,Zip:,FERNDALE,98248,48.8668,18837,WA,70.13201,98248,-122.615,18520,"<Polygon><outerBoundaryIs><LinearRing><coordinates>-122.66357,48.793408 -122.507957,48.887986 -122.551946,48.935274 -122.691064,48.922627 -122.737253,48.857743</coordinates></LinearRing></outerBoundaryIs></Polygon>"
,Zip:,FREELAND,98249,48.0234,3825,WA,17.45131,98249,-122.542,3722,"<Polygon><outerBoundaryIs><LinearRing><coordinates>-122.548647,48.053283 -122.605834,48.06483 -122.485412,47.996096 -122.520054,48.086275</coordinates></LinearRing></outerBoundaryIs></Polygon>"
,Zip:,FRIDAY HARBOR,98250,48.5471,7089,WA,61.03368,98250,-123.092,6846,"<Polygon><outerBoundaryIs><LinearRing><coordinates>-123.152954,48.622948 -123.151855,48.514074 -122.962699,48.450289</coordinates></LinearRing></outerBoundaryIs></Polygon>"
,Zip:,GOLD BAR,98251,47.813,4497,WA,26.80057,98251,-121.615,4262,"<Polygon><outerBoundaryIs><LinearRing><coordinates>-121.584725,47.776698 -121.506644,47.777798 -121.718893,47.875675 -121.666656,47.773949</coordinates></LinearRing></outerBoundaryIs></Polygon>"
,Zip:,GRANITE FALLS,98252,48.0482,7023,WA,257.8375,98252,-121.698,6716,"<Polygon><outerBoundaryIs><LinearRing><coordinates>-121.453306,48.124766 -121.667755,48.124766 -122.046616,48.093973 -122.024071,48.053283 -121.854161,47.972452 -121.794226,47.961455 -121.451657,47.968603</coordinates></LinearRing></outerBoundaryIs></Polygon>"
,Zip:,GREENBANK,98253,48.0878,1579,WA,11.07899,98253,-122.577,1428,"<Polygon><outerBoundaryIs><LinearRing><coordinates>-122.573391,48.154459 -122.600335,48.120367 -122.605834,48.06483 -122.548647,48.053283</coordinates></LinearRing></outerBoundaryIs></Polygon>"
,Zip:,LA CONNER,98257,48.416,2828,WA,16.96326,98257,-122.517,3609,"<Polygon><outerBoundaryIs><LinearRing><coordinates>-122.554696,48.44479 -122.49476,48.377156 -122.515655,48.455788</coordinates></LinearRing></outerBoundaryIs></Polygon>"
,Zip:,LAKE STEVENS,98258,48.042,18076,WA,24.69073,98258,-122.063,18006,"<Polygon><outerBoundaryIs><LinearRing><coordinates>-122.046616,48.093973 -122.098304,48.06538 -122.055964,47.978501 -122.024071,48.053283</coordinates></LinearRing></outerBoundaryIs></Polygon>"
,Zip:,LANGLEY,98260,48.0287,5420,WA,27.40521,98260,-122.447,5225,"<Polygon><outerBoundaryIs><LinearRing><coordinates>-122.520054,48.086275 -122.485412,47.996096 -122.481013,47.996096 -122.370489,47.997196</coordinates></LinearRing></outerBoundaryIs></Polygon>"
,Zip:,LOPEZ ISLAND,98261,48.5029,2506,WA,37.49914,98261,-122.899,2396,"<Polygon><outerBoundaryIs><LinearRing><coordinates>-122.801038,48.448639 -122.884618,48.57236 -122.872521,48.417847</coordinates></LinearRing></outerBoundaryIs></Polygon>"
,Zip:,LUMMI ISLAND,98262,48.6938,816,WA,9.08913,98262,-122.666,807,
,Zip:,LYNDEN,98264,48.9501,16994,WA,60.12472,98264,-122.446,16207,"<Polygon><outerBoundaryIs><LinearRing><coordinates>-122.507957,48.887986 -122.442522,48.86984 -122.330899,48.982013 -122.292408,49.002359 -122.550847,49.002359 -122.551946,48.983663 -122.551946,48.935274</coordinates></LinearRing></outerBoundaryIs></Polygon>"
,Zip:,MAPLE FALLS,98266,48.9477,0,WA,23.0426,98266,-122.128,2679,"<Polygon><outerBoundaryIs><LinearRing><coordinates>-122.077959,48.924277 -122.07191,49.001259 -122.185733,48.918228</coordinates></LinearRing></outerBoundaryIs></Polygon>"
,Zip:,MARBLEMOUNT,98267,48.5721,376,WA,323.78185,98267,-121.102,370,"<Polygon><outerBoundaryIs><LinearRing><coordinates>-121.062898,48.459637 -120.701634,48.53167 -120.752222,48.65759 -121.514892,48.642194 -121.449457,48.527271 -121.419214,48.518473</coordinates></LinearRing></outerBoundaryIs></Polygon>"
,Zip:,MARYSVILLE,98270,48.0608,35968,WA,13.81204,98270,-122.148,34613,"<Polygon><outerBoundaryIs><LinearRing><coordinates>-122.149992,48.015892 -122.111501,48.071979 -122.11205,48.091774 -122.183534,48.036787</coordinates></LinearRing></outerBoundaryIs></Polygon>"
,Zip:,MARYSVILLE,98271,48.0924,23362,WA,44.41589,98271,-122.238,22264,"<Polygon><outerBoundaryIs><LinearRing><coordinates>-122.183534,48.036787 -122.11205,48.091774 -122.265464,48.139063 -122.363341,48.123116</coordinates></LinearRing></outerBoundaryIs></Polygon>"
,Zip:,MONROE,98272,47.8569,24240,WA,95.70935,98272,-121.905,23806,"<Polygon><outerBoundaryIs><LinearRing><coordinates>-122.000427,47.775049 -121.838215,47.776148 -121.794226,47.961455 -121.854161,47.972452 -122.051015,47.831135 -122.018023,47.775599</coordinates></LinearRing></outerBoundaryIs></Polygon>"
,Zip:,MOUNT VERNON,98273,48.4052,27020,WA,92.97146,98273,-122.368,25648,"<Polygon><outerBoundaryIs><LinearRing><coordinates>-122.280311,48.475033 -122.444722,48.486581 -122.476064,48.519023 -122.516755,48.458537 -122.515655,48.455788 -122.49476,48.377156 -122.36939,48.291927 -122.303955,48.297425 -122.334198,48.421146 -122.191232,48.383205</coordinates></LinearRing></outerBoundaryIs></Polygon>"
,Zip:,MOUNT VERNON,98274,48.3425,13720,WA,88.45736,98274,-122.181,13326,"<Polygon><outerBoundaryIs><LinearRing><coordinates>-121.935542,48.297975 -122.191232,48.383205 -122.334198,48.421146 -122.303955,48.297425 -122.226423,48.297425</coordinates></LinearRing></outerBoundaryIs></Polygon>"
,Zip:,MUKILTEO,98275,47.9097,18882,WA,6.50718,98275,-122.303,17995,"<Polygon><outerBoundaryIs><LinearRing><coordinates>-122.28416,47.888322 -122.279761,47.922414 -122.291308,47.952107 -122.3276,47.893821 -122.291308,47.874575</coordinates></LinearRing></outerBoundaryIs></Polygon>"
,Zip:,OAK HARBOR,98277,48.3165,35130,WA,56.51158,98277,-122.631,34599,"<Polygon><outerBoundaryIs><LinearRing><coordinates>-122.505208,48.297425 -122.666319,48.369458 -122.702611,48.32162 -122.759797,48.245188 -122.729555,48.231991</coordinates></LinearRing></outerBoundaryIs></Polygon>"
,Zip:,OAK HARBOR,98278,48.3425,2038,WA,5.18551,98278,-122.663,2037,
,Zip:,OLGA,98279,48.6575,1413,WA,21.22275,98279,-122.821,945,"<Polygon><outerBoundaryIs><LinearRing><coordinates>-122.743851,48.661989 -122.884618,48.712027 -122.868122,48.647143</coordinates></LinearRing></outerBoundaryIs></Polygon>"
,Zip:,POINT ROBERTS,98281,48.9884,1339,WA,4.90554,98281,-123.058,1308,
,Zip:,CAMANO ISLAND,98282,48.1886,13946,WA,41.4041,98282,-122.469,13358,"<Polygon><outerBoundaryIs><LinearRing><coordinates>-122.5371,48.184152 -122.358392,48.054933 -122.478814,48.175904 -122.386436,48.225942 -122.397433,48.249587</coordinates></LinearRing></outerBoundaryIs></Polygon>"
,Zip:,ROCKPORT,98283,48.4702,245,WA,24.10528,98283,-121.517,274,"<Polygon><outerBoundaryIs><LinearRing><coordinates>-121.603971,48.486581 -121.4808,48.420046 -121.419214,48.518473 -121.449457,48.527271</coordinates></LinearRing></outerBoundaryIs></Polygon>"
,Zip:,SEDRO WOOLLEY,98284,48.4879,22536,WA,549.35234,98284,-121.997,22138,"<Polygon><outerBoundaryIs><LinearRing><coordinates>-121.636963,48.408499 -121.930593,48.516274 -121.729891,48.643293 -121.961936,48.644943 -122.121398,48.646043 -122.268214,48.707628 -122.332548,48.620199 -122.280311,48.475033 -122.191232,48.383205 -121.935542,48.297975 -121.636413,48.298525</coordinates></LinearRing></outerBoundaryIs></Polygon>"
,Zip:,SKYKOMISH,98288,47.6427,351,WA,322.0033,98288,-121.339,347,"<Polygon><outerBoundaryIs><LinearRing><coordinates>-121.377424,47.779998 -121.584725,47.704115 -121.586375,47.636481 -121.597372,47.533656 -121.243256,47.540254 -121.113487,47.596891 -121.118985,47.779998</coordinates></LinearRing></outerBoundaryIs></Polygon>"
,Zip:,SNOHOMISH,98290,47.9478,30602,WA,108.86112,98290,-122.002,29466,"<Polygon><outerBoundaryIs><LinearRing><coordinates>-121.854161,47.972452 -122.024071,48.053283 -122.055964,47.978501 -122.173636,47.943309 -122.051015,47.831135</coordinates></LinearRing></outerBoundaryIs></Polygon>"
,Zip:,STANWOOD,98292,48.2204,17897,WA,72.26387,98292,-122.309,17350,"<Polygon><outerBoundaryIs><LinearRing><coordinates>-122.226423,48.297425 -122.303955,48.297425 -122.36939,48.291927 -122.397433,48.249587 -122.386436,48.225942 -122.363341,48.123116 -122.265464,48.139063</coordinates></LinearRing></outerBoundaryIs></Polygon>"
,Zip:,SULTAN,98294,47.8734,6330,WA,378.19369,98294,-121.468,6080,"<Polygon><outerBoundaryIs><LinearRing><coordinates>-121.838215,47.776148 -121.666656,47.773949 -121.718893,47.875675 -121.506644,47.777798 -121.377424,47.779998 -121.118985,47.779998 -121.147029,47.98125 -121.451657,47.968603 -121.794226,47.961455</coordinates></LinearRing></outerBoundaryIs></Polygon>"
,Zip:,SUMAS,98295,48.9683,5086,WA,58.55474,98295,-122.122,2200,<Polygon><outerBound
,Zip:,SNOHOMISH,98296,47.8413,19969,WA,34.27446,98296,-122.104,19515,"<Polygon><outerBoundaryIs><LinearRing><coordinates>-122.162639,47.814639 -122.018023,47.775599 -122.051015,47.831135 -122.173636,47.943309 -122.185733,47.947708 -122.152741,47.85368</coordinates></LinearRing></outerBoundaryIs></Polygon>"
,Zip:,ANDERSON ISLAND,98303,47.1583,924,WA,8.3143,98303,-122.704,900,
,Zip:,ASHFORD,98304,46.8012,825,WA,60.10538,98304,-121.991,803,"<Polygon><outerBoundaryIs><LinearRing><coordinates>-122.034519,46.903505 -122.077409,46.774835 -122.139544,46.75449 -121.917946,46.738544 -121.917396,46.858415</coordinates></LinearRing></outerBoundaryIs></Polygon>"
,Zip:,BEAVER,98305,48.061,678,WA,63.17758,98305,-124.26,595,"<Polygon><outerBoundaryIs><LinearRing><coordinates>-124.111928,48.060981 -124.332975,48.139063 -124.325827,47.970253</coordinates></LinearRing></outerBoundaryIs></Polygon>"
,Zip:,BREMERTON,98310,47.5959,18666,WA,6.70099,98310,-122.621,18740,
,Zip:,BREMERTON,98311,47.6325,23696,WA,10.19574,98311,-122.637,23729,"<Polygon><outerBoundaryIs><LinearRing><coordinates>-122.660821,47.606788 -122.596486,47.607338 -122.613532,47.657377 -122.656972,47.657377 -122.684465,47.647479</coordinates></LinearRing></outerBoundaryIs></Polygon>"
,Zip:,BREMERTON,98312,47.5693,30673,WA,62.4746,98312,-122.763,30793,"<Polygon><outerBoundaryIs><LinearRing><coordinates>-122.799388,47.498464 -122.683365,47.527607 -122.659721,47.552351 -122.650373,47.563899 -122.643225,47.578745 -122.700961,47.635932 -122.777393,47.660126 -122.782342,47.656277 -122.871971,47.521559</coordinates></LinearRing></outerBoundaryIs></Polygon>"
,Zip:,BREMERTON,98314,47.559,0,WA,0.36923,98314,-122.642,1,"<Polygon><outerBoundaryIs><LinearRing><coordinates>-122.659721,47.552351 -122.625079,47.561699 -122.650373,47.563899</coordinates></LinearRing></outerBoundaryIs></Polygon>"
,Zip:,SILVERDALE,98315,47.7233,7917,WA,11.11093,98315,-122.715,6425,"<Polygon><outerBoundaryIs><LinearRing><coordinates>-122.70536,47.772299 -122.7466,47.722261 -122.692163,47.701366</coordinates></LinearRing></outerBoundaryIs></Polygon>"
,Zip:,BRINNON,98320,47.7377,1038,WA,451.82694,98320,-123.184,1006,"<Polygon><outerBoundaryIs><LinearRing><coordinates>-122.987444,47.606239 -122.868672,47.808041 -122.948403,47.872926 -123.164502,47.866877 -123.46693,47.866877 -123.492224,47.607338 -123.347059,47.607338</coordinates></LinearRing></outerBoundaryIs></Polygon>"
,Zip:,BUCKLEY,98321,46.9755,17058,WA,523.17217,98321,-121.794,16391,"<Polygon><outerBoundaryIs><LinearRing><coordinates>-121.917946,46.738544 -121.829417,46.735245 -121.554482,46.783633 -121.585275,47.075064 -122.123598,47.238925 -122.132396,47.243324 -122.123048,47.138299 -122.066411,47.076714 -121.915747,46.927699 -121.917396,46.858415</coordinates></LinearRing></outerBoundaryIs></Polygon>"
,Zip:,CARBONADO,98323,46.9993,722,WA,27.75332,98323,-121.988,725,
,Zip:,CHIMACUM,98325,47.9747,1657,WA,22.3212,98325,-122.785,1624,"<Polygon><outerBoundaryIs><LinearRing><coordinates>-122.799388,48.040086 -122.820283,47.925163 -122.782342,47.909767 -122.725156,47.959805</coordinates></LinearRing></outerBoundaryIs></Polygon>"
,Zip:,CLALLAM BAY,98326,48.1747,1536,WA,177.12132,98326,-124.307,1529,"<Polygon><outerBoundaryIs><LinearRing><coordinates>-123.947517,48.166006 -124.298884,48.266633 -124.666747,48.197349 -124.472093,48.087925 -124.429203,48.167656 -123.938719,48.131364</coordinates></LinearRing></outerBoundaryIs></Polygon>"
,Zip:,DUPONT,98327,47.0937,2406,WA,6.42775,98327,-122.666,2269,"<Polygon><outerBoundaryIs><LinearRing><coordinates>-122.696012,47.097059 -122.703711,47.071765 -122.697662,47.060218 -122.667419,47.117404</coordinates></LinearRing></outerBoundaryIs></Polygon>"
,Zip:,EATONVILLE,98328,46.8727,9004,WA,185.53661,98328,-122.217,8528,"<Polygon><outerBoundaryIs><LinearRing><coordinates>-122.191782,46.762188 -122.077409,46.774835 -122.034519,46.903505 -122.229723,46.943095 -122.371589,46.980487 -122.435924,46.850717 -122.202779,46.762738</coordinates></LinearRing></outerBoundaryIs></Polygon>"
,Zip:,GIG HARBOR,98329,47.3778,9873,WA,27.01172,98329,-122.727,9560,"<Polygon><outerBoundaryIs><LinearRing><coordinates>-122.730654,47.339552 -122.634977,47.403337 -122.801587,47.403886 -122.802137,47.358797 -122.794439,47.349999 -122.763097,47.343951</coordinates></LinearRing></outerBoundaryIs></Polygon>"
,Zip:,ELBE,98330,46.76,397,WA,17.69742,98330,-122.152,387,"<Polygon><outerBoundaryIs><LinearRing><coordinates>-122.077409,46.774835 -122.191782,46.762188 -122.139544,46.75449</coordinates></LinearRing></outerBoundaryIs></Polygon>"
,Zip:,FORKS,98331,47.9023,6574,WA,652.12394,98331,-124.282,6703,"<Polygon><outerBoundaryIs><LinearRing><coordinates>-124.425354,47.744256 -124.35442,47.533656 -124.276889,47.533656 -124.079485,47.804192 -124.246646,47.881174 -123.808949,48.078577 -123.938719,48.131364 -124.429203,48.167656 -124.472093,48.087925 -124.642002,47.908667</coordinates></LinearRing></outerBoundaryIs></Polygon>"
,Zip:,GIG HARBOR,98332,47.3653,13363,WA,20.95738,98332,-122.598,13043,"<Polygon><outerBoundaryIs><LinearRing><coordinates>-122.551397,47.403337 -122.62343,47.403337 -122.626729,47.403886 -122.652573,47.339552 -122.583839,47.333503</coordinates></LinearRing></outerBoundaryIs></Polygon>"
,Zip:,FOX ISLAND,98333,47.247,2887,WA,5.34583,98333,-122.625,2803,
,Zip:,GIG HARBOR,98335,47.299,23472,WA,22.63894,98335,-122.618,22916,"<Polygon><outerBoundaryIs><LinearRing><coordinates>-122.583289,47.254322 -122.583839,47.333503 -122.652573,47.339552</coordinates></LinearRing></outerBoundaryIs></Polygon>"
,Zip:,GLENOMA,98336,46.5511,1136,WA,58.68049,98336,-122.108,1139,"<Polygon><outerBoundaryIs><LinearRing><coordinates>-122.000977,46.607125 -122.220925,46.58513 -122.163188,46.474606</coordinates></LinearRing></outerBoundaryIs></Polygon>"
,Zip:,BREMERTON,98337,47.569,8297,WA,1.16265,98337,-122.636,8262,"<Polygon><outerBoundaryIs><LinearRing><coordinates>-122.625079,47.561699 -122.643225,47.578745 -122.650373,47.563899</coordinates></LinearRing></outerBoundaryIs></Polygon>"
,Zip:,GRAHAM,98338,47.0165,22213,WA,58.50508,98338,-122.279,21416,"<Polygon><outerBoundaryIs><LinearRing><coordinates>-122.229723,46.943095 -122.234671,47.085512 -122.293508,47.086611 -122.311653,47.082212 -122.379287,46.989284 -122.371589,46.980487</coordinates></LinearRing></outerBoundaryIs></Polygon>"
,Zip:,PORT HADLOCK,98339,48.0067,3069,WA,9.36944,98339,-122.744,3073,"<Polygon><outerBoundaryIs><LinearRing><coordinates>-122.725156,47.959805 -122.718557,47.991148 -122.769695,48.049984 -122.799388,48.040086</coordinates></LinearRing></outerBoundaryIs></Polygon>"
,Zip:,HANSVILLE,98340,47.9076,2029,WA,7.80973,98340,-122.567,1980,
,Zip:,INDIANOLA,98342,47.7542,1824,WA,2.81142,98342,-122.523,1859,"<Polygon><outerBoundaryIs><LinearRing><coordinates>-122.507957,47.742606 -122.53655,47.765701 -122.551946,47.755803</coordinates></LinearRing></outerBoundaryIs></Polygon>"
,Zip:,KEYPORT,98345,47.699,402,WA,0.53363,98345,-122.623,403,
,Zip:,KINGSTON,98346,47.8194,8261,WA,31.27359,98346,-122.531,8086,"<Polygon><outerBoundaryIs><LinearRing><coordinates>-122.519504,47.89602 -122.582189,47.882823 -122.57999,47.81189 -122.53655,47.765701 -122.507957,47.742606</coordinates></LinearRing></outerBoundaryIs></Polygon>"
,Zip:,LAKEBAY,98349,47.2568,5683,WA,30.49822,98349,-122.751,5528,"<Polygon><outerBoundaryIs><LinearRing><coordinates>-122.805986,47.221879 -122.728455,47.216381 -122.730654,47.339552 -122.763097,47.343951 -122.783992,47.299961</coordinates></LinearRing></outerBoundaryIs></Polygon>"
,Zip:,LONGBRANCH,98351,47.2047,937,WA,9.1398,98351,-122.771,893,
,Zip:,MILTON,98354,47.25,5412,WA,2.63136,98354,-122.316,5714,"<Polygon><outerBoundaryIs><LinearRing><coordinates>-122.294057,47.242775 -122.293508,47.257071 -122.334748,47.259271 -122.336397,47.257621 -122.328149,47.238925</coordinates></LinearRing></outerBoundaryIs></Polygon>"
,Zip:,MINERAL,98355,46.6912,591,WA,335.45834,98355,-122.226,575,"<Polygon><outerBoundaryIs><LinearRing><coordinates>-122.467816,46.654963 -122.220925,46.58513 -122.000977,46.607125 -121.766182,46.680258 -121.829417,46.735245 -121.917946,46.738544 -122.139544,46.75449 -122.191782,46.762188 -122.202779,46.762738 -122.527202,46.762738 -122.647624,46.762738 -122.682816,46.659912 -122.609133,46.632969</coordinates></LinearRing></outerBoundaryIs></Polygon>"
,Zip:,MORTON,98356,46.5117,1968,WA,173.009,98356,-122.237,1989,"<Polygon><outerBoundaryIs><LinearRing><coordinates>-122.220925,46.58513 -122.467816,46.654963 -122.474965,46.597227 -122.375988,46.536741 -122.24182,46.386627 -121.971284,46.387727 -122.163188,46.474606</coordinates></LinearRing></outerBoundaryIs></Polygon>"
,Zip:,NORDLAND,98358,48.0549,864,WA,10.82745,98358,-122.706,855,
,Zip:,OLALLA,98359,47.4305,5240,WA,13.92396,98359,-122.576,5179,"<Polygon><outerBoundaryIs><LinearRing><coordinates>-122.551397,47.403337 -122.533251,47.462723 -122.62343,47.403337</coordinates></LinearRing></outerBoundaryIs></Polygon>"
,Zip:,ORTING,98360,46.9952,7939,WA,121.30824,98360,-122.096,7583,"<Polygon><outerBoundaryIs><LinearRing><coordinates>-122.034519,46.903505 -121.917396,46.858415 -121.915747,46.927699 -122.066411,47.076714 -122.123048,47.138299 -122.226973,47.140499 -122.234671,47.085512 -122.229723,46.943095</coordinates></LinearRing></outerBoundaryIs></Polygon>"
,Zip:,PACKWOOD,98361,46.7121,845,WA,97.89094,98361,-121.669,839,"<Polygon><outerBoundaryIs><LinearRing><coordinates>-121.766182,46.680258 -121.638612,46.590079 -121.532487,46.783633 -121.554482,46.783633 -121.829417,46.735245</coordinates></LinearRing></outerBoundaryIs></Polygon>"
,Zip:,PORT ANGELES,98362,47.9838,21021,WA,235.42438,98362,-123.375,21023,"<Polygon><outerBoundaryIs><LinearRing><coordinates>-123.433388,48.122017 -123.419092,48.043385 -123.590651,48.042286 -123.46693,47.866877 -123.164502,47.866877 -123.221138,48.125866</coordinates></LinearRing></outerBoundaryIs></Polygon>"
,Zip:,PORT ANGELES,98363,48.003,12213,WA,431.68635,98363,-123.771,12127,"<Polygon><outerBoundaryIs><LinearRing><coordinates>-123.590651,48.042286 -123.419092,48.043385 -123.433388,48.122017 -123.947517,48.166006 -123.938719,48.131364 -123.808949,48.078577 -124.246646,47.881174 -123.46693,47.866877</coordinates></LinearRing></outerBoundaryIs></Polygon>"
,Zip:,PORT LUDLOW,98365,47.8986,3734,WA,41.49762,98365,-122.711,3637,"<Polygon><outerBoundaryIs><LinearRing><coordinates>-122.609683,47.887222 -122.718557,47.991148 -122.725156,47.959805 -122.782342,47.909767 -122.711959,47.818488</coordinates></LinearRing></outerBoundaryIs></Polygon>"
,Zip:,PORT ORCHARD,98366,47.5339,31414,WA,23.88398,98366,-122.58,31502,
,Zip:,PORT ORCHARD,98367,47.4658,23560,WA,82.33279,98367,-122.684,23236,"<Polygon><outerBoundaryIs><LinearRing><coordinates>-122.634977,47.403337 -122.626729,47.403886 -122.62343,47.403337 -122.533251,47.462723 -122.49586,47.512761 -122.656422,47.538605 -122.683365,47.527607 -122.799388,47.498464 -122.801587,47.403886</coordinates></LinearRing></outerBoundaryIs></Polygon>"
,Zip:,PORT TOWNSEND,98368,48.0413,13045,WA,58.93156,98368,-122.851,12794,"<Polygon><outerBoundaryIs><LinearRing><coordinates>-122.820283,47.925163 -122.799388,48.040086 -122.769695,48.049984 -122.756498,48.144561 -122.87417,48.046685 -122.950052,47.974102</coordinates></LinearRing></outerBoundaryIs></Polygon>"
,Zip:,POULSBO,98370,47.7573,24872,WA,55.91883,98370,-122.627,24582,"<Polygon><outerBoundaryIs><LinearRing><coordinates>-122.567343,47.712913 -122.551946,47.744806 -122.551946,47.755803 -122.53655,47.765701 -122.57999,47.81189 -122.70536,47.772299 -122.692163,47.701366 -122.656972,47.657377 -122.613532,47.657377 -122.618481,47.691468 -122.627829,47.698067</coordinates></LinearRing></outerBoundaryIs></Polygon>"
,Zip:,PUYALLUP,98371,47.2006,20713,WA,11.8561,98371,-122.322,19433,"<Polygon><outerBoundaryIs><LinearRing><coordinates>-122.293508,47.169642 -122.294057,47.242775 -122.328149,47.238925 -122.362241,47.224629 -122.357293,47.181189 -122.357293,47.170192</coordinates></LinearRing></outerBoundaryIs></Polygon>"
,Zip:,PUYALLUP,98372,47.2064,22212,WA,13.60176,98372,-122.267,21734,"<Polygon><outerBoundaryIs><LinearRing><coordinates>-122.293508,47.257071 -122.294057,47.242775 -122.293508,47.169642 -122.215426,47.169642 -122.262715,47.257621</coordinates></LinearRing></outerBoundaryIs></Polygon>"
,Zip:,PUYALLUP,98373,47.1477,16734,WA,9.27315,98373,-122.325,16273,"<Polygon><outerBoundaryIs><LinearRing><coordinates>-122.292958,47.125652 -122.293508,47.169642 -122.357293,47.170192 -122.357293,47.125652</coordinates></LinearRing></outerBoundaryIs></Polygon>"
,Zip:,PUYALLUP,98374,47.1304,30236,WA,16.51785,98374,-122.262,29419,"<Polygon><outerBoundaryIs><LinearRing><coordinates>-122.234671,47.085512 -122.226973,47.140499 -122.215426,47.169642 -122.293508,47.169642 -122.292958,47.125652 -122.293508,47.086611</coordinates></LinearRing></outerBoundaryIs></Polygon>"
,Zip:,PUYALLUP,98375,47.104,14629,WA,8.99648,98375,-122.325,14169,"<Polygon><outerBoundaryIs><LinearRing><coordinates>-122.293508,47.086611 -122.292958,47.125652 -122.357293,47.125652 -122.356743,47.09266 -122.311653,47.082212</coordinates></LinearRing></outerBoundaryIs></Polygon>"
,Zip:,QUILCENE,98376,47.8496,1792,WA,107.302,98376,-122.85,1753,"<Polygon><outerBoundaryIs><LinearRing><coordinates>-122.805437,47.850931 -122.802687,47.68377 -122.711959,47.818488 -122.782342,47.909767 -122.820283,47.925163 -122.950052,47.974102 -122.948403,47.872926 -122.868672,47.808041</coordinates></LinearRing></outerBoundaryIs></Polygon>"
,Zip:,RANDLE,98377,46.5418,2474,WA,594.27434,98377,-121.697,2482,"<Polygon><outerBoundaryIs><LinearRing><coordinates>-121.391171,46.393775 -121.423063,46.492752 -121.355979,46.715449 -121.455506,46.783633 -121.532487,46.783633 -121.638612,46.590079 -121.766182,46.680258 -122.000977,46.607125 -122.163188,46.474606 -121.971284,46.387727 -121.52369,46.388277</coordinates></LinearRing></outerBoundaryIs></Polygon>"
,Zip:,SEABECK,98380,47.57,4130,WA,51.89184,98380,-122.909,4187,"<Polygon><outerBoundaryIs><LinearRing><coordinates>-123.029784,47.512211 -122.941804,47.522658 -122.871971,47.521559 -122.782342,47.656277</coordinates></LinearRing></outerBoundaryIs></Polygon>"
,Zip:,SEKIU,98381,48.1879,1866,WA,265.87592,98381,-124.578,1857,"<Polygon><outerBoundaryIs><LinearRing><coordinates>-124.732731,48.379906 -124.642002,47.908667 -124.472093,48.087925 -124.666747,48.197349 -124.298884,48.266633</coordinates></LinearRing></outerBoundaryIs></Polygon>"
,Zip:,SEQUIM,98382,48.0013,21835,WA,224.77708,98382,-123.091,21547,<Polygon><outerBound
,Zip:,SILVERDALE,98383,47.665,19158,WA,17.3626,98383,-122.715,19966,"<Polygon><outerBoundaryIs><LinearRing><coordinates>-122.684465,47.647479 -122.656972,47.657377 -122.692163,47.701366 -122.7466,47.722261 -122.777393,47.660126 -122.700961,47.635932</coordinates></LinearRing></outerBoundaryIs></Polygon>"
,Zip:,SPANAWAY,98387,47.0598,36563,WA,24.87246,98387,-122.39,34154,"<Polygon><outerBoundaryIs><LinearRing><coordinates>-122.356743,47.09266 -122.390835,47.082212 -122.432075,47.111905 -122.469466,47.130051 -122.465617,47.097609 -122.435374,47.082762 -122.379287,46.989284 -122.311653,47.082212</coordinates></LinearRing></outerBoundaryIs></Polygon>"
,Zip:,STEILACOOM,98388,47.1675,6125,WA,2.41556,98388,-122.601,5915,"<Polygon><outerBoundaryIs><LinearRing><coordinates>-122.576691,47.186138 -122.583839,47.187238 -122.616831,47.156445 -122.595936,47.159194</coordinates></LinearRing></outerBoundaryIs></Polygon>"
,Zip:,SUMNER,98390,47.1863,44751,WA,48.88115,98390,-122.186,43632,"<Polygon><outerBoundaryIs><LinearRing><coordinates>-122.226973,47.140499 -122.123048,47.138299 -122.132396,47.243324 -122.229723,47.257071 -122.262715,47.257621 -122.215426,47.169642</coordinates></LinearRing></outerBoundaryIs></Polygon>"
,Zip:,SUQUAMISH,98392,47.7342,2449,WA,2.20322,98392,-122.565,2443,
,Zip:,VAUGHN,98394,47.3235,719,WA,3.45573,98394,-122.779,717,"<Polygon><outerBoundaryIs><LinearRing><coordinates>-122.783992,47.299961 -122.763097,47.343951 -122.794439,47.349999</coordinates></LinearRing></outerBoundaryIs></Polygon>"
,Zip:,TACOMA,98402,47.2487,4456,WA,0.92152,98402,-122.439,4377,"<Polygon><outerBoundaryIs><LinearRing><coordinates>-122.443072,47.265319 -122.446921,47.264219 -122.440873,47.236176 -122.440873,47.231777 -122.432075,47.233427 -122.433175,47.247173</coordinates></LinearRing></outerBoundaryIs></Polygon>"
,Zip:,TACOMA,98403,47.2661,7658,WA,1.01789,98403,-122.459,7614,"<Polygon><outerBoundaryIs><LinearRing><coordinates>-122.443072,47.265319 -122.464517,47.275767 -122.466717,47.270818 -122.468366,47.255422 -122.446921,47.264219</coordinates></LinearRing></outerBoundaryIs></Polygon>"
,Zip:,TACOMA,98404,47.2092,31379,WA,7.88606,98404,-122.41,30881,"<Polygon><outerBoundaryIs><LinearRing><coordinates>-122.389185,47.180639 -122.393584,47.236726 -122.399083,47.240575 -122.401282,47.240575 -122.432075,47.233427 -122.431525,47.215281 -122.431525,47.181189</coordinates></LinearRing></outerBoundaryIs></Polygon>"
,Zip:,TACOMA,98405,47.2462,23527,WA,4.18863,98405,-122.472,23308,"<Polygon><outerBoundaryIs><LinearRing><coordinates>-122.446921,47.264219 -122.468366,47.255422 -122.505208,47.255422 -122.505208,47.243324 -122.440873,47.236176</coordinates></LinearRing></outerBoundaryIs></Polygon>"
,Zip:,TACOMA,98406,47.2626,22732,WA,4.0804,98406,-122.51,22602,"<Polygon><outerBoundaryIs><LinearRing><coordinates>-122.468366,47.255422 -122.466717,47.270818 -122.534351,47.275767 -122.554146,47.247173 -122.505208,47.255422</coordinates></LinearRing></outerBoundaryIs></Polygon>"
,Zip:,TACOMA,98407,47.2887,19628,WA,5.66525,98407,-122.511,19511,"<Polygon><outerBoundaryIs><LinearRing><coordinates>-122.534351,47.275767 -122.466717,47.270818 -122.464517,47.275767</coordinates></LinearRing></outerBoundaryIs></Polygon>"
,Zip:,TACOMA,98408,47.1978,19387,WA,3.45393,98408,-122.447,19124,"<Polygon><outerBoundaryIs><LinearRing><coordinates>-122.431525,47.215281 -122.462868,47.214731 -122.463967,47.184488 -122.465067,47.181189 -122.431525,47.181189</coordinates></LinearRing></outerBoundaryIs></Polygon>"
,Zip:,TACOMA,98409,47.2115,22964,WA,7.394,98409,-122.482,22674,"<Polygon><outerBoundaryIs><LinearRing><coordinates>-122.463967,47.184488 -122.462868,47.214731 -122.440873,47.231777 -122.440873,47.236176 -122.505208,47.243324 -122.505208,47.242775 -122.505208,47.213631 -122.505208,47.190537</coordinates></LinearRing></outerBoundaryIs></Polygon>"
,Zip:,TACOMA,98416,47.2627,954,WA,0.08862,98416,-122.482,953,
,Zip:,TACOMA,98418,47.2232,10483,WA,1.69259,98418,-122.447,10405,"<Polygon><outerBoundaryIs><LinearRing><coordinates>-122.462868,47.214731 -122.431525,47.215281 -122.432075,47.233427 -122.440873,47.231777</coordinates></LinearRing></outerBoundaryIs></Polygon>"
,Zip:,TACOMA,98421,47.2578,604,WA,6.35258,98421,-122.401,603,"<MultiGeometry><Polygon><outerBoundaryIs><LinearRing><coordinates>-122.400182,47.241125 -122.357293,47.258721 -122.360592,47.26092</coordinates></LinearRing></outerBoundaryIs></Polygon><Polygon><outerBoundaryIs><LinearRing><coordinates>-122.433175,47.247173 -122.432075,47.233427 -122.401282,47.240575</coordinates></LinearRing></outerBoundaryIs></Polygon></MultiGeometry>"
,Zip:,TACOMA,98422,47.2904,19679,WA,6.62682,98422,-122.393,18963,"<Polygon><outerBoundaryIs><LinearRing><coordinates>-122.360592,47.26092 -122.357293,47.258721 -122.336397,47.257621 -122.334748,47.259271 -122.335848,47.26367 -122.419428,47.321406</coordinates></LinearRing></outerBoundaryIs></Polygon>"
,Zip:,TACOMA,98424,47.2362,5693,WA,6.3156,98424,-122.354,5616,"<Polygon><outerBoundaryIs><LinearRing><coordinates>-122.399083,47.240575 -122.393584,47.236726 -122.362241,47.224629 -122.328149,47.238925 -122.336397,47.257621 -122.357293,47.258721 -122.400182,47.241125</coordinates></LinearRing></outerBoundaryIs></Polygon>"
,Zip:,CAMP MURRAY,98430,47.1179,219,WA,0.43912,98430,-122.569,15,
,Zip:,TACOMA,98433,47.0629,19801,WA,88.07131,98433,-122.576,19684,"<Polygon><outerBoundaryIs><LinearRing><coordinates>-122.667419,47.117404 -122.697662,47.060218 -122.637726,46.981586 -122.565143,46.96619 -122.435374,47.082762 -122.465617,47.097609 -122.499709,47.122903 -122.545898,47.125102 -122.556895,47.118504 -122.569542,47.126202 -122.595936,47.159194 -122.616831,47.156445</coordinates></LinearRing></outerBoundaryIs></Polygon>"
,Zip:,MCCHORD AFB,98438,47.1284,0,WA,5.07867,98438,-122.48,513,"<Polygon><outerBoundaryIs><LinearRing><coordinates>-122.469466,47.130051 -122.467816,47.153146 -122.497509,47.138849 -122.499709,47.122903 -122.465617,47.097609</coordinates></LinearRing></outerBoundaryIs></Polygon>"
,Zip:,LAKEWOOD,98439,47.1283,6806,WA,2.44771,98439,-122.519,6292,"<Polygon><outerBoundaryIs><LinearRing><coordinates>-122.497509,47.138849 -122.525003,47.13665 -122.545898,47.125102 -122.499709,47.122903</coordinates></LinearRing></outerBoundaryIs></Polygon>"
,Zip:,TACOMA,98443,47.2053,5696,WA,5.05265,98443,-122.373,5575,"<Polygon><outerBoundaryIs><LinearRing><coordinates>-122.362241,47.224629 -122.393584,47.236726 -122.389185,47.180639 -122.357293,47.181189</coordinates></LinearRing></outerBoundaryIs></Polygon>"
,Zip:,TACOMA,98444,47.1519,31604,WA,6.80717,98444,-122.449,31001,"<Polygon><outerBoundaryIs><LinearRing><coordinates>-122.469466,47.130051 -122.432075,47.111905 -122.431525,47.181189 -122.465067,47.181189 -122.467816,47.153146</coordinates></LinearRing></outerBoundaryIs></Polygon>"
,Zip:,TACOMA,98445,47.1406,24379,WA,10.85973,98445,-122.41,24724,"<Polygon><outerBoundaryIs><LinearRing><coordinates>-122.431525,47.181189 -122.432075,47.111905 -122.390835,47.082212 -122.389185,47.180639</coordinates></LinearRing></outerBoundaryIs></Polygon>"
,Zip:,TACOMA,98446,47.131,8239,WA,10.47051,98446,-122.374,8070,"<Polygon><outerBoundaryIs><LinearRing><coordinates>-122.357293,47.125652 -122.357293,47.170192 -122.357293,47.181189 -122.389185,47.180639 -122.390835,47.082212 -122.356743,47.09266</coordinates></LinearRing></outerBoundaryIs></Polygon>"
,Zip:,TACOMA,98447,47.1456,80,WA,0.08026,98447,-122.444,81,
,Zip:,TACOMA,98465,47.2486,7335,WA,1.82485,98465,-122.528,7222,"<Polygon><outerBoundaryIs><LinearRing><coordinates>-122.505208,47.243324 -122.505208,47.255422 -122.554146,47.247173 -122.559095,47.244424 -122.505208,47.242775</coordinates></LinearRing></outerBoundaryIs></Polygon>"
,Zip:,TACOMA,98466,47.2277,25635,WA,5.87395,98466,-122.536,25206,"<Polygon><outerBoundaryIs><LinearRing><coordinates>-122.57779,47.213082 -122.505208,47.213631 -122.505208,47.242775 -122.559095,47.244424</coordinates></LinearRing></outerBoundaryIs></Polygon>"
,Zip:,UNIVERSITY PLACE,98467,47.2032,14124,WA,5.01707,98467,-122.544,14562,"<Polygon><outerBoundaryIs><LinearRing><coordinates>-122.583839,47.187238 -122.576691,47.186138 -122.527202,47.196585 -122.505208,47.190537 -122.505208,47.213631 -122.57779,47.213082</coordinates></LinearRing></outerBoundaryIs></Polygon>"
,Zip:,LAKEWOOD,98498,47.1613,29238,WA,9.76194,98498,-122.555,28442,"<Polygon><outerBoundaryIs><LinearRing><coordinates>-122.525003,47.13665 -122.527202,47.196585 -122.576691,47.186138 -122.595936,47.159194 -122.569542,47.126202 -122.556895,47.118504 -122.545898,47.125102</coordinates></LinearRing></outerBoundaryIs></Polygon>"
,Zip:,LAKEWOOD,98499,47.1662,29492,WA,9.26252,98499,-122.506,29117,"<Polygon><outerBoundaryIs><LinearRing><coordinates>-122.467816,47.153146 -122.465067,47.181189 -122.463967,47.184488 -122.505208,47.190537 -122.527202,47.196585 -122.525003,47.13665 -122.497509,47.138849</coordinates></LinearRing></outerBoundaryIs></Polygon>"
,Zip:,OLYMPIA,98501,46.9718,33799,WA,40.75306,98501,-122.869,33395,"<Polygon><outerBoundaryIs><LinearRing><coordinates>-122.838979,47.047571 -122.893416,47.04922 -122.909362,47.043722 -122.906613,47.021177 -122.908812,46.899106 -122.808186,46.920551 -122.83348,46.996433</coordinates></LinearRing></outerBoundaryIs></Polygon>"
,Zip:,OLYMPIA,98502,47.0819,25778,WA,54.76938,98502,-123.028,25450,"<Polygon><outerBoundaryIs><LinearRing><coordinates>-122.925858,47.147097 -123.017137,47.067366 -122.938505,47.181739 -123.074873,47.097609 -123.201893,47.084962 -123.200793,47.056918 -122.906613,47.021177 -122.909362,47.043722</coordinates></LinearRing></outerBoundaryIs></Polygon>"
,Zip:,LACEY,98503,47.0259,33910,WA,12.16914,98503,-122.799,33346,"<Polygon><outerBoundaryIs><LinearRing><coordinates>-122.83348,46.996433 -122.764746,47.056918 -122.83348,47.048121 -122.838979,47.047571</coordinates></LinearRing></outerBoundaryIs></Polygon>"
,Zip:,OLYMPIA,98505,47.0684,661,WA,0.86511,98505,-122.979,651,
,Zip:,OLYMPIA,98506,47.0996,17334,WA,21.41401,98506,-122.867,17140,"<Polygon><outerBoundaryIs><LinearRing><coordinates>-122.83348,47.048121 -122.838979,47.120154 -122.893416,47.04922 -122.838979,47.047571</coordinates></LinearRing></outerBoundaryIs></Polygon>"
,Zip:,OLYMPIA,98512,46.9601,24413,WA,144.83658,98512,-123.051,24013,"<Polygon><outerBoundaryIs><LinearRing><coordinates>-122.955551,46.896356 -122.908812,46.899106 -122.906613,47.021177 -123.200793,47.056918 -123.200243,47.014578 -123.159553,46.936497 -123.160103,46.895257</coordinates></LinearRing></outerBoundaryIs></Polygon>"
,Zip:,OLYMPIA,98513,46.9942,24187,WA,48.30119,98513,-122.734,23870,"<Polygon><outerBoundaryIs><LinearRing><coordinates>-122.697662,47.060218 -122.703711,47.071765 -122.764746,47.056918 -122.83348,46.996433 -122.808186,46.920551 -122.763646,46.937597 -122.637726,46.981586</coordinates></LinearRing></outerBoundaryIs></Polygon>"
,Zip:,OLYMPIA,98516,47.0965,14173,WA,29.25859,98516,-122.785,13953,"<Polygon><outerBoundaryIs><LinearRing><coordinates>-122.764746,47.056918 -122.703711,47.071765 -122.696012,47.097059 -122.838979,47.120154 -122.83348,47.048121</coordinates></LinearRing></outerBoundaryIs></Polygon>"
,Zip:,ABERDEEN,98520,47.0967,21604,WA,203.31155,98520,-123.778,21418,"<Polygon><outerBoundaryIs><LinearRing><coordinates>-123.754512,47.062967 -123.644538,47.34505 -123.792453,47.328554 -123.841392,47.246074 -123.771008,47.084962 -123.852389,46.96454 -124.028897,46.874362 -123.767709,46.878211 -123.783655,46.962341 -123.681929,46.958492</coordinates></LinearRing></outerBoundaryIs></Polygon>"
,Zip:,ALLYN,98524,47.3621,1599,WA,12.84231,98524,-122.865,1607,"<Polygon><outerBoundaryIs><LinearRing><coordinates>-122.824682,47.406086 -122.900014,47.371994 -122.83238,47.337902</coordinates></LinearRing></outerBoundaryIs></Polygon>"
,Zip:,AMANDA PARK,98526,47.4331,450,WA,143.64278,98526,-124.015,453,"<Polygon><outerBoundaryIs><LinearRing><coordinates>-123.791354,47.51771 -124.073437,47.533656 -124.193858,47.356048 -124.065189,47.288964 -123.905726,47.422582</coordinates></LinearRing></outerBoundaryIs></Polygon>"
,Zip:,BELFAIR,98528,47.4446,7631,WA,64.24278,98528,-122.89,7381,"<Polygon><outerBoundaryIs><LinearRing><coordinates>-122.840628,47.447326 -122.974247,47.378592 -122.963249,47.355498 -122.900014,47.371994 -122.824682,47.406086 -122.802137,47.358797 -122.801587,47.403886 -122.799388,47.498464 -122.871971,47.521559 -122.941804,47.522658 -123.04518,47.374193</coordinates></LinearRing></outerBoundaryIs></Polygon>"
,Zip:,CENTRALIA,98531,46.7351,21746,WA,109.93357,98531,-122.963,21679,"<Polygon><outerBoundaryIs><LinearRing><coordinates>-122.940705,46.816625 -123.193095,46.734145 -122.813685,46.66816 -122.788391,46.763838</coordinates></LinearRing></outerBoundaryIs></Polygon>"
,Zip:,CHEHALIS,98532,46.6417,21289,WA,359.45383,98532,-123.024,21250,"<Polygon><outerBoundaryIs><LinearRing><coordinates>-122.682816,46.659912 -122.647624,46.762738 -122.670169,46.763288 -122.788391,46.763838 -122.813685,46.66816 -123.193095,46.734145 -123.347059,46.729746 -123.287123,46.792981 -123.370703,46.792431 -123.365754,46.606575 -123.131509,46.509798 -123.218389,46.557636 -123.047379,46.484504 -122.9605,46.576332 -122.813135,46.518046 -122.793889,46.546639</coordinates></LinearRing></outerBoundaryIs></Polygon>"
,Zip:,CINEBAR,98533,46.6139,584,WA,28.1216,98533,-122.535,574,"<Polygon><outerBoundaryIs><LinearRing><coordinates>-122.474965,46.597227 -122.467816,46.654963 -122.609133,46.632969 -122.574491,46.576882</coordinates></LinearRing></outerBoundaryIs></Polygon>"
,Zip:,COPALIS BEACH,98535,47.0866,226,WA,23.96842,98535,-124.114,227,"<Polygon><outerBoundaryIs><LinearRing><coordinates>-124.169664,47.09321 -124.158667,47.044821 -124.077286,47.109156</coordinates></LinearRing></outerBoundaryIs></Polygon>"
,Zip:,COPALIS CROSSING,98536,47.153,644,WA,31.47153,98536,-124.099,645,"<Polygon><outerBoundaryIs><LinearRing><coordinates>-124.077286,47.109156 -124.020649,47.215281 -124.055841,47.203184 -124.191659,47.159194 -124.176812,47.09266 -124.169664,47.09321</coordinates></LinearRing></outerBoundaryIs></Polygon>"
,Zip:,COSMOPOLIS,98537,46.8637,2080,WA,96.12547,98537,-123.615,2042,"<Polygon><outerBoundaryIs><LinearRing><coordinates>-123.681929,46.958492 -123.783655,46.962341 -123.767709,46.878211 -123.63739,46.793531 -123.470229,46.792981 -123.442736,46.872712</coordinates></LinearRing></outerBoundaryIs></Polygon>"
,Zip:,CURTIS,98538,46.5143,363,WA,37.08702,98538,-123.12,315,"<Polygon><outerBoundaryIs><LinearRing><coordinates>-123.047379,46.484504 -123.218389,46.557636 -123.131509,46.509798 -123.097967,46.424568</coordinates></LinearRing></outerBoundaryIs></Polygon>"
,Zip:,ELMA,98541,47.0466,9388,WA,207.31714,98541,-123.393,9342,"<Polygon><outerBoundaryIs><LinearRing><coordinates>-123.200243,47.014578 -123.329463,46.988185 -123.328913,47.083862 -123.407544,47.238376 -123.490575,47.230677 -123.481777,46.978287 -123.575804,46.96729 -123.442736,46.889208 -123.159553,46.936497</coordinates></LinearRing></outerBoundaryIs></Polygon>"
,Zip:,ETHEL,98542,46.5297,504,WA,10.92276,98542,-122.73,499,"<Polygon><outerBoundaryIs><LinearRing><coordinates>-122.793889,46.546639 -122.813135,46.518046 -122.740552,46.518046 -122.698212,46.515297 -122.633877,46.532342</coordinates></LinearRing></outerBoundaryIs></Polygon>"
,Zip:,GRAPEVIEW,98546,47.3187,1892,WA,32.53033,98546,-122.937,1865,"<Polygon><outerBoundaryIs><LinearRing><coordinates>-122.83238,47.337902 -122.900014,47.371994 -122.963249,47.355498 -123.051228,47.317007 -122.926408,47.281265</coordinates></LinearRing></outerBoundaryIs></Polygon>"
,Zip:,GRAYLAND,98547,46.8327,1725,WA,128.80837,98547,-123.896,1719,"<Polygon><outerBoundaryIs><LinearRing><coordinates>-123.767709,46.878211 -124.028897,46.874362 -124.084434,46.858965 -124.110828,46.844669 -124.079485,46.730846 -123.896929,46.792431 -123.63739,46.793531</coordinates></LinearRing></outerBoundaryIs></Polygon>"
,Zip:,HOODSPORT,98548,47.4523,1862,WA,41.44424,98548,-123.192,1824,"<Polygon><outerBoundaryIs><LinearRing><coordinates>-123.113914,47.463272 -123.315716,47.501213 -123.242583,47.414884 -123.156804,47.359897</coordinates></LinearRing></outerBoundaryIs></Polygon>"
,Zip:,HOQUIAM,98550,47.1071,11476,WA,186.619,98550,-123.929,11579,"<Polygon><outerBoundaryIs><LinearRing><coordinates>-123.852389,46.96454 -123.771008,47.084962 -123.841392,47.246074 -124.012401,47.225729 -124.020649,47.215281 -124.077286,47.109156 -124.158667,47.044821 -124.170214,47.029975 -124.169664,47.017328 -124.149319,47.016228</coordinates></LinearRing></outerBoundaryIs></Polygon>"
,Zip:,HUMPTULIPS,98552,47.3044,260,WA,92.33407,98552,-123.921,265,"<Polygon><outerBoundaryIs><LinearRing><coordinates>-123.792453,47.328554 -123.905726,47.422582 -124.065189,47.288964 -124.082785,47.274117 -124.012401,47.225729 -123.841392,47.246074</coordinates></LinearRing></outerBoundaryIs></Polygon>"
,Zip:,LILLIWAUP,98555,47.5522,416,WA,122.134,98555,-123.188,408,"<Polygon><outerBoundaryIs><LinearRing><coordinates>-122.987444,47.606239 -123.347059,47.607338 -123.315716,47.501213 -123.113914,47.463272</coordinates></LinearRing></outerBoundaryIs></Polygon>"
,Zip:,MCCLEARY,98557,47.0431,2662,WA,34.89045,98557,-123.267,2654,"<Polygon><outerBoundaryIs><LinearRing><coordinates>-123.200793,47.056918 -123.201893,47.084962 -123.328913,47.083862 -123.329463,46.988185 -123.200243,47.014578</coordinates></LinearRing></outerBoundaryIs></Polygon>"
,Zip:,MATLOCK,98560,47.3105,152,WA,70.43237,98560,-123.427,152,"<Polygon><outerBoundaryIs><LinearRing><coordinates>-123.407544,47.238376 -123.321215,47.308209 -123.449884,47.411585 -123.490575,47.230677</coordinates></LinearRing></outerBoundaryIs></Polygon>"
,Zip:,MOCLIPS,98562,47.2385,597,WA,29.14473,98562,-124.098,598,"<Polygon><outerBoundaryIs><LinearRing><coordinates>-124.203756,47.206483 -124.055841,47.203184 -124.020649,47.215281 -124.012401,47.225729 -124.082785,47.274117 -124.219702,47.244424</coordinates></LinearRing></outerBoundaryIs></Polygon>"
,Zip:,MONTESANO,98563,47.5384,6842,WA,1295.28857,98563,-123.723,7322,"<Polygon><outerBoundaryIs><LinearRing><coordinates>-123.449884,47.411585 -123.321215,47.308209 -123.242583,47.414884 -123.315716,47.501213 -123.347059,47.607338 -123.492224,47.607338 -123.46693,47.866877 -124.246646,47.881174 -124.079485,47.804192 -124.276889,47.533656 -124.073437,47.533656 -123.791354,47.51771 -123.532365,47.51771 -123.644538,47.34505 -123.754512,47.062967 -123.681929,46.958492 -123.442736,46.872712 -123.442736,46.889208 -123.575804,46.96729 -123.481777,46.978287 -123.490575,47.230677</coordinates></LinearRing></outerBoundaryIs></Polygon>"
,Zip:,MOSSYROCK,98564,46.4535,2363,WA,153.27409,98564,-122.433,2303,"<Polygon><outerBoundaryIs><LinearRing><coordinates>-122.375988,46.536741 -122.586588,46.505399 -122.588238,46.503199 -122.641575,46.387177 -122.24182,46.385527 -122.24182,46.386627</coordinates></LinearRing></outerBoundaryIs></Polygon>"
,Zip:,OAKVILLE,98568,46.86,2374,WA,125.89544,98568,-123.297,2334,"<Polygon><outerBoundaryIs><LinearRing><coordinates>-123.470229,46.792981 -123.370703,46.792431 -123.287123,46.792981 -123.160653,46.793531 -123.160103,46.895257 -123.159553,46.936497 -123.442736,46.889208 -123.442736,46.872712</coordinates></LinearRing></outerBoundaryIs></Polygon>"
,Zip:,OCEAN SHORES,98569,46.9857,4204,WA,11.32929,98569,-124.156,4083,"<MultiGeometry><Polygon><outerBoundaryIs><LinearRing><coordinates>-124.170214,47.029975 -124.158667,47.044821 -124.169664,47.09321 -124.176812,47.09266</coordinates></LinearRing></outerBoundaryIs></Polygon><Polygon><outerBoundaryIs><LinearRing><coordinates>-124.180112,46.926599 -124.149319,47.016228 -124.169664,47.017328</coordinates></LinearRing></outerBoundaryIs></Polygon></MultiGeometry>"
,Zip:,ONALASKA,98570,46.585,3691,WA,67.16039,98570,-122.689,3634,"<MultiGeometry><Polygon><outerBoundaryIs><LinearRing><coordinates>-122.609133,46.632969 -122.682816,46.659912 -122.793889,46.546639 -122.633877,46.532342 -122.626179,46.540041 -122.574491,46.576882</coordinates></LinearRing></outerBoundaryIs></Polygon><Polygon><outerBoundaryIs><LinearRing><coordinates>-122.698212,46.515297 -122.740552,46.518046 -122.70646,46.490002</coordinates></LinearRing></outerBoundaryIs></Polygon></MultiGeometry>"
,Zip:,PACIFIC BEACH,98571,47.1918,128,WA,18.86099,98571,-124.136,125,"<Polygon><outerBoundaryIs><LinearRing><coordinates>-124.191659,47.159194 -124.055841,47.203184 -124.203756,47.206483</coordinates></LinearRing></outerBoundaryIs></Polygon>"
,Zip:,PE ELL,98572,46.4784,840,WA,135.11684,98572,-123.258,821,"<Polygon><outerBoundaryIs><LinearRing><coordinates>-123.139758,46.386627 -123.097967,46.424568 -123.131509,46.509798 -123.365754,46.606575 -123.359156,46.512547 -123.358056,46.384427 -123.322864,46.384427 -123.217839,46.384977</coordinates></LinearRing></outerBoundaryIs></Polygon>"
,Zip:,QUINAULT,98575,47.424,480,WA,180.28059,98575,-123.723,499,"<Polygon><outerBoundaryIs><LinearRing><coordinates>-123.792453,47.328554 -123.644538,47.34505 -123.532365,47.51771 -123.791354,47.51771 -123.905726,47.422582</coordinates></LinearRing></outerBoundaryIs></Polygon>"
,Zip:,RAINIER,98576,46.8288,3902,WA,63.0061,98576,-122.654,3622,"<Polygon><outerBoundaryIs><LinearRing><coordinates>-122.527202,46.762738 -122.722956,46.902405 -122.670169,46.763288 -122.647624,46.762738</coordinates></LinearRing></outerBoundaryIs></Polygon>"
,Zip:,RAYMOND,98577,46.6568,6416,WA,414.4855,98577,-123.583,6526,"<Polygon><outerBoundaryIs><LinearRing><coordinates>-123.359156,46.512547 -123.365754,46.606575 -123.370703,46.792431 -123.470229,46.792981 -123.63739,46.793531 -123.896929,46.792431 -123.89143,46.746242 -123.843591,46.705002 -123.664334,46.516396</coordinates></LinearRing></outerBoundaryIs></Polygon>"
,Zip:,ROCHESTER,98579,46.8003,9909,WA,92.49706,98579,-123.126,9688,"<Polygon><outerBoundaryIs><LinearRing><coordinates>-122.940705,46.816625 -122.955551,46.896356 -123.160103,46.895257 -123.160653,46.793531 -123.287123,46.792981 -123.347059,46.729746 -123.193095,46.734145</coordinates></LinearRing></outerBoundaryIs></Polygon>"
,Zip:,ROY,98580,46.9605,9243,WA,80.55492,98580,-122.465,9278,"<Polygon><outerBoundaryIs><LinearRing><coordinates>-122.371589,46.980487 -122.379287,46.989284 -122.435374,47.082762 -122.565143,46.96619 -122.435924,46.850717</coordinates></LinearRing></outerBoundaryIs></Polygon>"
,Zip:,RYDERWOOD,98581,46.3353,432,WA,80.55453,98581,-123.101,422,"<Polygon><outerBoundaryIs><LinearRing><coordinates>-123.040781,46.387727 -123.139758,46.386627 -123.217839,46.384977 -123.21509,46.278852 -123.027034,46.281602 -122.980845,46.387727</coordinates></LinearRing></outerBoundaryIs></Polygon>"
,Zip:,SALKUM,98582,46.5134,409,WA,7.03495,98582,-122.64,403,"<Polygon><outerBoundaryIs><LinearRing><coordinates>-122.70646,46.490002 -122.730654,46.483954 -122.588238,46.503199 -122.586588,46.505399 -122.626179,46.540041 -122.633877,46.532342 -122.698212,46.515297</coordinates></LinearRing></outerBoundaryIs></Polygon>"
,Zip:,SHELTON,98584,47.2246,31825,WA,329.00789,98584,-123.162,31411,"<Polygon><outerBoundaryIs><LinearRing><coordinates>-122.938505,47.197135 -123.091919,47.213082 -122.926408,47.281265 -123.051228,47.317007 -123.124361,47.328004 -123.156804,47.359897 -123.242583,47.414884 -123.321215,47.308209 -123.407544,47.238376 -123.328913,47.083862 -123.201893,47.084962 -123.074873,47.097609</coordinates></LinearRing></outerBoundaryIs></Polygon>"
,Zip:,SILVER CREEK,98585,46.5573,627,WA,33.25401,98585,-122.492,611,"<Polygon><outerBoundaryIs><LinearRing><coordinates>-122.375988,46.536741 -122.474965,46.597227 -122.574491,46.576882 -122.626179,46.540041 -122.586588,46.505399</coordinates></LinearRing></outerBoundaryIs></Polygon>"
,Zip:,SOUTH BEND,98586,46.5799,2374,WA,120.12275,98586,-123.816,2431,"<Polygon><outerBoundaryIs><LinearRing><coordinates>-123.843591,46.705002 -123.960713,46.636268 -123.898028,46.504849 -123.664334,46.516396</coordinates></LinearRing></outerBoundaryIs></Polygon>"
,Zip:,TAHOLAH,98587,47.4019,923,WA,180.81901,98587,-124.215,909,"<Polygon><outerBoundaryIs><LinearRing><coordinates>-124.065189,47.288964 -124.193858,47.356048 -124.073437,47.533656 -124.276889,47.533656 -124.35442,47.533656 -124.219702,47.244424 -124.082785,47.274117</coordinates></LinearRing></outerBoundaryIs></Polygon>"
,Zip:,TAHUYA,98588,47.4374,1693,WA,49.10869,98588,-123.017,1636,"<Polygon><outerBoundaryIs><LinearRing><coordinates>-123.119412,47.38959 -123.04518,47.374193 -122.941804,47.522658 -123.029784,47.512211</coordinates></LinearRing></outerBoundaryIs></Polygon>"
,Zip:,TENINO,98589,46.8407,6950,WA,101.58377,98589,-122.826,6814,"<Polygon><outerBoundaryIs><LinearRing><coordinates>-122.722956,46.902405 -122.763646,46.937597 -122.808186,46.920551 -122.908812,46.899106 -122.955551,46.896356 -122.940705,46.816625 -122.788391,46.763838 -122.670169,46.763288</coordinates></LinearRing></outerBoundaryIs></Polygon>"
,Zip:,TOKELAND,98590,46.7536,447,WA,34.01909,98590,-123.982,448,"<Polygon><outerBoundaryIs><LinearRing><coordinates>-123.89143,46.746242 -123.896929,46.792431 -124.079485,46.730846</coordinates></LinearRing></outerBoundaryIs></Polygon>"
,Zip:,TOLEDO,98591,46.4386,2882,WA,97.68491,98591,-122.734,2854,"<Polygon><outerBoundaryIs><LinearRing><coordinates>-122.588238,46.503199 -122.730654,46.483954 -122.926408,46.411371 -122.933006,46.387727 -122.702061,46.387177 -122.641575,46.387177</coordinates></LinearRing></outerBoundaryIs></Polygon>"
,Zip:,UNION,98592,47.3317,1283,WA,22.08152,98592,-123.057,1255,"<Polygon><outerBoundaryIs><LinearRing><coordinates>-122.963249,47.355498 -122.974247,47.378592 -123.124361,47.328004 -123.051228,47.317007</coordinates></LinearRing></outerBoundaryIs></Polygon>"
,Zip:,VADER,98593,46.4127,995,WA,15.13874,98593,-123.013,967,"<Polygon><outerBoundaryIs><LinearRing><coordinates>-122.926408,46.411371 -123.040781,46.387727 -122.980845,46.387727 -122.933006,46.387727</coordinates></LinearRing></outerBoundaryIs></Polygon>"
,Zip:,WESTPORT,98595,46.8833,2815,WA,5.16605,98595,-124.11,2793,
,Zip:,WINLOCK,98596,46.4813,6708,WA,100.96477,98596,-122.923,6602,"<Polygon><outerBoundaryIs><LinearRing><coordinates>-122.926408,46.411371 -122.730654,46.483954 -122.70646,46.490002 -122.740552,46.518046 -122.813135,46.518046 -122.9605,46.576332 -123.047379,46.484504 -123.097967,46.424568 -123.139758,46.386627 -123.040781,46.387727</coordinates></LinearRing></outerBoundaryIs></Polygon>"
,Zip:,YELM,98597,46.855,14485,WA,139.83045,98597,-122.515,14024,"<Polygon><outerBoundaryIs><LinearRing><coordinates>-122.527202,46.762738 -122.202779,46.762738 -122.435924,46.850717 -122.565143,46.96619 -122.637726,46.981586 -122.763646,46.937597 -122.722956,46.902405</coordinates></LinearRing></outerBoundaryIs></Polygon>"
,Zip:,AMBOY,98601,45.9593,2654,WA,60.67377,98601,-122.365,2516,"<Polygon><outerBoundaryIs><LinearRing><coordinates>-122.511806,45.901642 -122.245119,45.930235 -122.246219,46.053956 -122.262715,46.058904 -122.379837,45.961577 -122.556345,45.925286</coordinates></LinearRing></outerBoundaryIs></Polygon>"
,Zip:,APPLETON,98602,45.9124,122,WA,59.02594,98602,-121.2,119,"<Polygon><outerBoundaryIs><LinearRing><coordinates>-121.261951,45.943982 -121.335084,45.835657 -121.125584,45.871949 -121.120085,45.8648 -121.079944,45.833458 -121.123384,45.983022</coordinates></LinearRing></outerBoundaryIs></Polygon>"
,Zip:,ARIEL,98603,46.0262,955,WA,103.06632,98603,-122.455,945,"<Polygon><outerBoundaryIs><LinearRing><coordinates>-122.262715,46.058904 -122.360042,46.106743 -122.623979,46.050656 -122.642125,46.014915 -122.379837,45.961577</coordinates></LinearRing></outerBoundaryIs></Polygon>"
,Zip:,BATTLE GROUND,98604,45.7978,24813,WA,78.66815,98604,-122.494,23922,"<Polygon><outerBoundaryIs><LinearRing><coordinates>-122.356743,45.722384 -122.529952,45.874148 -122.643775,45.836207 -122.611332,45.765824 -122.599785,45.747678 -122.574491,45.730632</coordinates></LinearRing></outerBoundaryIs></Polygon>"
,Zip:,BINGEN,98605,45.7056,106,WA,1.52817,98605,-121.437,103,"<Polygon><outerBoundaryIs><LinearRing><coordinates>-121.385672,45.702039 -121.386222,45.703138 -121.467053,45.708087</coordinates></LinearRing></outerBoundaryIs></Polygon>"
,Zip:,BRUSH PRAIRIE,98606,45.7302,8784,WA,37.12154,98606,-122.455,9104,"<Polygon><outerBoundaryIs><LinearRing><coordinates>-122.356743,45.722384 -122.574491,45.730632 -122.552496,45.708087 -122.372689,45.69709 -122.336947,45.711387</coordinates></LinearRing></outerBoundaryIs></Polygon>"
,Zip:,CAMAS,98607,45.6415,18940,WA,41.15308,98607,-122.386,18407,"<Polygon><outerBoundaryIs><LinearRing><coordinates>-122.382587,45.577768 -122.273712,45.684443 -122.336947,45.711387 -122.372689,45.69709 -122.456819,45.638804 -122.476064,45.621208 -122.504108,45.587116</coordinates></LinearRing></outerBoundaryIs></Polygon>"
,Zip:,CARSON,98610,45.7927,2406,WA,60.33659,98610,-121.858,2341,"<Polygon><outerBoundaryIs><LinearRing><coordinates>-121.739788,45.786169 -121.919046,45.873598 -121.975683,45.792217 -121.862409,45.715236 -121.73484,45.784519</coordinates></LinearRing></outerBoundaryIs></Polygon>"
,Zip:,CASTLE ROCK,98611,46.3099,8698,WA,111.95429,98611,-122.893,8664,"<Polygon><outerBoundaryIs><LinearRing><coordinates>-122.702061,46.387177 -122.933006,46.387727 -122.980845,46.387727 -123.027034,46.281602 -122.937955,46.201871 -122.79224,46.24861 -122.829631,46.33329 -122.725156,46.33054</coordinates></LinearRing></outerBoundaryIs></Polygon>"
,Zip:,CATHLAMET,98612,46.2592,2540,WA,117.87302,98612,-123.301,2515,"<Polygon><outerBoundaryIs><LinearRing><coordinates>-123.217839,46.384977 -123.322864,46.384427 -123.454833,46.269505 -123.21289,46.174927 -123.21509,46.278852</coordinates></LinearRing></outerBoundaryIs></Polygon>"
,Zip:,CENTERVILLE,98613,45.7302,891,WA,114.31312,98613,-120.975,867,<Polygon><outerBound
,Zip:,COUGAR,98616,46.1001,97,WA,25.30884,98616,-122.292,96,"<Polygon><outerBoundaryIs><LinearRing><coordinates>-122.246219,46.053956 -122.245669,46.143034 -122.360042,46.106743 -122.262715,46.058904</coordinates></LinearRing></outerBoundaryIs></Polygon>"
,Zip:,DALLESPORT,98617,45.6343,215,WA,8.68539,98617,-121.144,207,"<Polygon><outerBoundaryIs><LinearRing><coordinates>-121.095891,45.645952 -121.127233,45.659149 -121.143729,45.61241</coordinates></LinearRing></outerBoundaryIs></Polygon>"
,Zip:,GLENWOOD,98619,45.99,536,WA,98.59368,98619,-121.32,534,"<Polygon><outerBoundaryIs><LinearRing><coordinates>-121.261951,45.943982 -121.123384,45.983022 -121.175072,46.044608 -121.446708,46.044608 -121.434061,45.90659</coordinates></LinearRing></outerBoundaryIs></Polygon>"
,Zip:,GOLDENDALE,98620,45.901,7025,WA,525.60567,98620,-120.809,6924,<Polygon><outerBound
,Zip:,GRAYS RIVER,98621,46.3553,204,WA,22.06193,98621,-123.546,206,"<Polygon><outerBoundaryIs><LinearRing><coordinates>-123.491124,46.383328 -123.609896,46.356384 -123.530715,46.320643</coordinates></LinearRing></outerBoundaryIs></Polygon>"
,Zip:,ILWACO,98624,46.3317,1432,WA,20.54439,98624,-124.01,1305,"<Polygon><outerBoundaryIs><LinearRing><coordinates>-124.0179,46.370131 -124.067388,46.317343 -123.971711,46.303047 -123.960713,46.355284</coordinates></LinearRing></outerBoundaryIs></Polygon>"
,Zip:,KALAMA,98625,46.0175,4889,WA,42.2423,98625,-122.784,4762,"<Polygon><outerBoundaryIs><LinearRing><coordinates>-122.623979,46.050656 -122.624529,46.051756 -122.868672,46.0765 -122.794439,45.953329 -122.642125,46.014915</coordinates></LinearRing></outerBoundaryIs></Polygon>"
,Zip:,KELSO,98626,46.1427,22577,WA,173.70765,98626,-122.764,22570,"<Polygon><outerBoundaryIs><LinearRing><coordinates>-122.868672,46.0765 -122.624529,46.051756 -122.612982,46.171078 -122.786741,46.24641 -122.79224,46.24861 -122.937955,46.201871 -122.913211,46.097945</coordinates></LinearRing></outerBoundaryIs></Polygon>"
,Zip:,KLICKITAT,98628,45.8586,70,WA,1.64393,98628,-121.132,71,
,Zip:,LA CENTER,98629,45.8814,7164,WA,37.35037,98629,-122.611,6696,"<Polygon><outerBoundaryIs><LinearRing><coordinates>-122.529952,45.874148 -122.511806,45.901642 -122.556345,45.925286 -122.711409,45.873598 -122.643775,45.836207</coordinates></LinearRing></outerBoundaryIs></Polygon>"
,Zip:,LONG BEACH,98631,46.3776,3448,WA,11.1121,98631,-124.039,3566,"<Polygon><outerBoundaryIs><LinearRing><coordinates>-124.067388,46.317343 -124.0179,46.370131 -124.026148,46.45921 -124.05859,46.395425</coordinates></LinearRing></outerBoundaryIs></Polygon>"
,Zip:,LONGVIEW,98632,46.2058,46755,WA,99.23017,98632,-123.062,46792,"<Polygon><outerBoundaryIs><LinearRing><coordinates>-122.913211,46.097945 -122.937955,46.201871 -123.027034,46.281602 -123.21509,46.278852 -123.21289,46.174927</coordinates></LinearRing></outerBoundaryIs></Polygon>"
,Zip:,LYLE,98635,45.7735,3216,WA,180.23311,98635,-121.208,3135,"<Polygon><outerBoundaryIs><LinearRing><coordinates>-121.385672,45.702039 -121.143729,45.61241 -121.127233,45.659149 -121.082144,45.814212 -121.087093,45.815312 -121.079944,45.833458 -121.120085,45.8648 -121.125584,45.871949 -121.335084,45.835657 -121.386222,45.703138</coordinates></LinearRing></outerBoundaryIs></Polygon>"
,Zip:,NASELLE,98638,46.4004,2015,WA,313.53492,98638,-123.708,1813,"<Polygon><outerBoundaryIs><LinearRing><coordinates>-123.491124,46.383328 -123.358056,46.384427 -123.359156,46.512547 -123.664334,46.516396 -123.898028,46.504849 -123.821596,46.376729 -123.928271,46.45756 -123.960713,46.355284 -123.971711,46.303047 -123.703924,46.307446 -123.609896,46.356384</coordinates></LinearRing></outerBoundaryIs></Polygon>"
,Zip:,OCEAN PARK,98640,46.5226,4290,WA,23.48504,98640,-124.046,4243,"<Polygon><outerBoundaryIs><LinearRing><coordinates>-124.049243,46.646166 -124.05859,46.395425 -124.026148,46.45921</coordinates></LinearRing></outerBoundaryIs></Polygon>"
,Zip:,RIDGEFIELD,98642,45.8021,11957,WA,59.08494,98642,-122.7,11690,"<Polygon><outerBoundaryIs><LinearRing><coordinates>-122.658071,45.734481 -122.611332,45.765824 -122.643775,45.836207 -122.711409,45.873598 -122.780143,45.851603 -122.765846,45.77957 -122.735053,45.733931</coordinates></LinearRing></outerBoundaryIs></Polygon>"
,Zip:,ROSBURG,98643,46.3033,397,WA,33.68613,98643,-123.623,401,"<Polygon><outerBoundaryIs><LinearRing><coordinates>-123.609896,46.356384 -123.703924,46.307446 -123.55216,46.266205 -123.530715,46.320643</coordinates></LinearRing></outerBoundaryIs></Polygon>"
,Zip:,SILVERLAKE,98645,46.3126,1121,WA,22.66191,98645,-122.781,1112,"<Polygon><outerBoundaryIs><LinearRing><coordinates>-122.786741,46.24641 -122.725156,46.33054 -122.829631,46.33329 -122.79224,46.24861</coordinates></LinearRing></outerBoundaryIs></Polygon>"
,Zip:,SKAMOKAWA,98647,46.3224,423,WA,68.41951,98647,-123.43,416,"<Polygon><outerBoundaryIs><LinearRing><coordinates>-123.55216,46.266205 -123.454833,46.269505 -123.322864,46.384427 -123.358056,46.384427 -123.491124,46.383328 -123.530715,46.320643</coordinates></LinearRing></outerBoundaryIs></Polygon>"
,Zip:,STEVENSON,98648,46.0747,3895,WA,1425.15202,98648,-121.908,3845,"<Polygon><outerBoundaryIs><LinearRing><coordinates>-121.612768,45.922537 -121.612768,46.043508 -121.52369,46.044058 -121.52369,46.388277 -121.971284,46.387727 -122.24182,46.386627 -122.24182,46.385527 -122.245669,46.143034 -122.246219,46.053956 -122.245119,45.930235 -122.249518,45.798266 -122.045516,45.793867 -122.108201,45.599213 -121.941041,45.644302 -121.940491,45.644302 -121.672154,45.709737 -121.73484,45.784519 -121.862409,45.715236 -121.975683,45.792217 -121.919046,45.873598 -121.739788,45.786169 -121.60837,45.858202</coordinates></LinearRing></outerBoundaryIs></Polygon>"
,Zip:,TOUTLE,98649,46.2461,740,WA,434.14078,98649,-122.479,745,"<Polygon><outerBoundaryIs><LinearRing><coordinates>-122.612982,46.171078 -122.624529,46.051756 -122.623979,46.050656 -122.360042,46.106743 -122.245669,46.143034 -122.24182,46.385527 -122.641575,46.387177 -122.702061,46.387177 -122.725156,46.33054 -122.786741,46.24641</coordinates></LinearRing></outerBoundaryIs></Polygon>"
,Zip:,TROUT LAKE,98650,45.9838,797,WA,65.78943,98650,-121.527,792,"<Polygon><outerBoundaryIs><LinearRing><coordinates>-121.446708,46.044608 -121.52369,46.044058 -121.612768,46.043508 -121.612768,45.922537 -121.434061,45.90659</coordinates></LinearRing></outerBoundaryIs></Polygon>"
,Zip:,UNDERWOOD,98651,45.7728,1465,WA,54.98602,98651,-121.638,1432,"<Polygon><outerBoundaryIs><LinearRing><coordinates>-121.672154,45.709737 -121.52204,45.728432 -121.60837,45.858202 -121.739788,45.786169 -121.73484,45.784519</coordinates></LinearRing></outerBoundaryIs></Polygon>"
,Zip:,VANCOUVER,98660,45.6853,10577,WA,20.84428,98660,-122.728,10475,"<Polygon><outerBoundaryIs><LinearRing><coordinates>-122.70646,45.693241 -122.735053,45.733931 -122.765846,45.77957 -122.673468,45.621208 -122.666869,45.628906 -122.691613,45.670696</coordinates></LinearRing></outerBoundaryIs></Polygon>"
,Zip:,VANCOUVER,98661,45.6412,36995,WA,10.30217,98661,-122.625,36270,"<Polygon><outerBoundaryIs><LinearRing><coordinates>-122.673468,45.621208 -122.601985,45.609661 -122.599785,45.636604 -122.599235,45.678944 -122.636626,45.671796 -122.666869,45.628906</coordinates></LinearRing></outerBoundaryIs></Polygon>"
,Zip:,VANCOUVER,98662,45.6898,24862,WA,13.57213,98662,-122.579,24241,"<Polygon><outerBoundaryIs><LinearRing><coordinates>-122.574491,45.730632 -122.599785,45.747678 -122.600885,45.687192 -122.599235,45.678944 -122.599785,45.636604 -122.562944,45.642103 -122.552496,45.708087</coordinates></LinearRing></outerBoundaryIs></Polygon>"
,Zip:,VANCOUVER,98663,45.6533,14281,WA,4.4281,98663,-122.662,13960,"<Polygon><outerBoundaryIs><LinearRing><coordinates>-122.636626,45.671796 -122.691613,45.670696 -122.666869,45.628906</coordinates></LinearRing></outerBoundaryIs></Polygon>"
,Zip:,VANCOUVER,98664,45.6211,20935,WA,5.26337,98664,-122.578,20562,"<Polygon><outerBoundaryIs><LinearRing><coordinates>-122.562944,45.642103 -122.599785,45.636604 -122.601985,45.609661 -122.550847,45.598663 -122.559645,45.621208</coordinates></LinearRing></outerBoundaryIs></Polygon>"
,Zip:,VANCOUVER,98665,45.6817,20614,WA,7.16822,98665,-122.654,20221,"<Polygon><outerBoundaryIs><LinearRing><coordinates>-122.599235,45.678944 -122.600885,45.687192 -122.661371,45.693241 -122.70646,45.693241 -122.691613,45.670696 -122.636626,45.671796</coordinates></LinearRing></outerBoundaryIs></Polygon>"
,Zip:,WAHKIACUS,98670,45.8155,0,WA,0.12688,98670,-121.085,0,
,Zip:,WASHOUGAL,98671,45.6743,15146,WA,166.25419,98671,-122.198,14774,"<Polygon><outerBoundaryIs><LinearRing><coordinates>-122.382587,45.577768 -122.108201,45.599213 -122.045516,45.793867 -122.249518,45.798266 -122.273712,45.684443</coordinates></LinearRing></outerBoundaryIs></Polygon>"
,Zip:,WHITE SALMON,98672,45.8327,5804,WA,178.0282,98672,-121.462,5700,"<Polygon><outerBoundaryIs><LinearRing><coordinates>-121.467053,45.708087 -121.386222,45.703138 -121.335084,45.835657 -121.261951,45.943982 -121.434061,45.90659 -121.612768,45.922537 -121.60837,45.858202 -121.52204,45.728432</coordinates></LinearRing></outerBoundaryIs></Polygon>"
,Zip:,WOODLAND,98674,45.9479,9416,WA,93.03723,98674,-122.653,9105,"<Polygon><outerBoundaryIs><LinearRing><coordinates>-122.556345,45.925286 -122.379837,45.961577 -122.642125,46.014915 -122.794439,45.953329 -122.780143,45.851603 -122.711409,45.873598</coordinates></LinearRing></outerBoundaryIs></Polygon>"
,Zip:,YACOLT,98675,45.8373,5288,WA,121.59251,98675,-122.339,5437,"<Polygon><outerBoundaryIs><LinearRing><coordinates>-122.336947,45.711387 -122.273712,45.684443 -122.249518,45.798266 -122.245119,45.930235 -122.511806,45.901642 -122.529952,45.874148 -122.356743,45.722384</coordinates></LinearRing></outerBoundaryIs></Polygon>"
,Zip:,VANCOUVER,98682,45.6754,44572,WA,33.38449,98682,-122.473,41884,"<Polygon><outerBoundaryIs><LinearRing><coordinates>-122.372689,45.69709 -122.552496,45.708087 -122.562944,45.642103 -122.456819,45.638804</coordinates></LinearRing></outerBoundaryIs></Polygon>"
,Zip:,VANCOUVER,98683,45.6052,29153,WA,7.23948,98683,-122.511,28108,"<Polygon><outerBoundaryIs><LinearRing><coordinates>-122.504108,45.587116 -122.476064,45.621208 -122.559645,45.621208 -122.550847,45.598663</coordinates></LinearRing></outerBoundaryIs></Polygon>"
,Zip:,VANCOUVER,98684,45.6311,22578,WA,6.98162,98684,-122.516,21424,"<Polygon><outerBoundaryIs><LinearRing><coordinates>-122.559645,45.621208 -122.476064,45.621208 -122.456819,45.638804 -122.562944,45.642103</coordinates></LinearRing></outerBoundaryIs></Polygon>"
,Zip:,VANCOUVER,98685,45.7164,21847,WA,9.87833,98685,-122.69,21219,"<Polygon><outerBoundaryIs><LinearRing><coordinates>-122.735053,45.733931 -122.70646,45.693241 -122.661371,45.693241 -122.658071,45.734481</coordinates></LinearRing></outerBoundaryIs></Polygon>"
,Zip:,VANCOUVER,98686,45.7237,14768,WA,11.10026,98686,-122.624,14297,"<Polygon><outerBoundaryIs><LinearRing><coordinates>-122.599785,45.747678 -122.611332,45.765824 -122.658071,45.734481 -122.661371,45.693241 -122.600885,45.687192</coordinates></LinearRing></outerBoundaryIs></Polygon>"
,Zip:,WENATCHEE,98801,47.4343,37247,WA,153.63862,98801,-120.353,36553,"<Polygon><outerBoundaryIs><LinearRing><coordinates>-120.302428,47.26147 -120.247991,47.379692 -120.332671,47.457224 -120.240843,47.628233 -120.442095,47.637581 -120.455842,47.619985 -120.351917,47.527607 -120.439346,47.43193 -120.458041,47.298861</coordinates></LinearRing></outerBoundaryIs></Polygon>"
,Zip:,EAST WENATCHEE,98802,47.4775,23606,WA,77.67048,98802,-120.223,23657,"<Polygon><outerBoundaryIs><LinearRing><coordinates>-120.305727,47.43193 -120.193004,47.376393 -120.106675,47.374193 -120.179257,47.424232 -120.228196,47.488017 -120.108874,47.560599 -120.193554,47.585893 -120.255139,47.549052</coordinates></LinearRing></outerBoundaryIs></Polygon>"
,Zip:,BREWSTER,98812,48.2129,3890,WA,186.35848,98812,-119.829,3861,"<Polygon><outerBoundaryIs><LinearRing><coordinates>-119.775103,48.335366 -119.890026,48.388154 -119.95821,48.27873 -119.965358,48.156659 -119.877929,48.063181 -119.715717,48.100572 -119.673377,48.140162</coordinates></LinearRing></outerBoundaryIs></Polygon>"
,Zip:,BRIDGEPORT,98813,47.9511,3326,WA,156.01359,98813,-119.803,3276,"<Polygon><outerBoundaryIs><LinearRing><coordinates>-119.644784,47.993347 -119.684374,48.078027 -119.883977,48.057132 -119.974706,47.806391 -119.877929,47.786596</coordinates></LinearRing></outerBoundaryIs></Polygon>"
,Zip:,CARLTON,98814,48.2233,449,WA,120.22801,98814,-120.128,445,"<Polygon><outerBoundaryIs><LinearRing><coordinates>-119.95821,48.27873 -120.155063,48.346364 -120.317825,48.124216 -120.238093,48.095623 -120.117122,48.246287 -119.965358,48.156659</coordinates></LinearRing></outerBoundaryIs></Polygon>"
,Zip:,CASHMERE,98815,47.5326,8517,WA,121.82467,98815,-120.5,8346,"<Polygon><outerBoundaryIs><LinearRing><coordinates>-120.351917,47.527607 -120.455842,47.619985 -120.637299,47.609538 -120.585611,47.43248 -120.439346,47.43193</coordinates></LinearRing></outerBoundaryIs></Polygon>"
,Zip:,CHELAN,98816,47.9047,6366,WA,189.43452,98816,-120.156,6216,"<Polygon><outerBoundaryIs><LinearRing><coordinates>-119.875179,47.960355 -120.030243,47.960355 -120.098426,47.85478 -120.200152,47.965854 -120.416801,47.976851 -120.118772,47.777248</coordinates></LinearRing></outerBoundaryIs></Polygon>"
,Zip:,ENTIAT,98822,47.8606,2208,WA,468.6834,98822,-120.458,2130,"<Polygon><outerBoundaryIs><LinearRing><coordinates>-120.118772,47.777248 -120.416801,47.976851 -120.817107,48.14841 -120.442095,47.637581 -120.240843,47.628233</coordinates></LinearRing></outerBoundaryIs></Polygon>"
,Zip:,EPHRATA,98823,47.1675,9641,WA,302.45251,98823,-119.532,9575,"<Polygon><outerBoundaryIs><LinearRing><coordinates>-119.49192,47.104207 -119.45068,47.257621 -119.597495,47.404436 -119.74706,47.337352 -119.556804,47.030525 -119.512265,46.960691 -119.267023,46.985435 -119.251077,46.986535</coordinates></LinearRing></outerBoundaryIs></Polygon>"
,Zip:,LEAVENWORTH,98826,47.7926,6240,WA,1002.44333,98826,-120.858,6132,"<Polygon><outerBoundaryIs><LinearRing><coordinates>-121.113487,47.596891 -120.946326,47.47262 -120.665342,47.462723 -120.637299,47.609538 -120.455842,47.619985 -120.442095,47.637581 -120.817107,48.14841 -120.906186,48.163807 -121.147029,47.98125 -121.118985,47.779998</coordinates></LinearRing></outerBoundaryIs></Polygon>"
,Zip:,LOOMIS,98827,48.8657,549,WA,347.08125,98827,-119.752,528,"<Polygon><outerBoundaryIs><LinearRing><coordinates>-119.690423,48.69828 -119.517214,48.815953 -119.53316,49.000159 -119.919169,49.000159 -119.931816,48.770313 -119.91477,48.714777 -119.906522,48.704329</coordinates></LinearRing></outerBoundaryIs></Polygon>"
,Zip:,MALAGA,98828,47.3119,2133,WA,63.69805,98828,-120.19,2091,"<Polygon><outerBoundaryIs><LinearRing><coordinates>-120.247991,47.379692 -120.302428,47.26147 -120.097327,47.26202</coordinates></LinearRing></outerBoundaryIs></Polygon>"
,Zip:,MANSFIELD,98830,47.93,732,WA,605.22189,98830,-119.416,744,"<Polygon><outerBoundaryIs><LinearRing><coordinates>-119.001986,47.962005 -118.98384,47.969153 -119.129555,48.15006 -119.644784,47.993347 -119.877929,47.786596 -119.53481,47.68487 -119.512265,47.844332 -119.212036,47.836084 -119.120208,47.946608</coordinates></LinearRing></outerBoundaryIs></Polygon>"
,Zip:,MANSON,98831,47.9326,3368,WA,61.28577,98831,-120.122,3248,"<Polygon><outerBoundaryIs><LinearRing><coordinates>-120.098426,47.85478 -120.030243,47.960355 -120.093478,48.019741 -120.200152,47.965854</coordinates></LinearRing></outerBoundaryIs></Polygon>"
,Zip:,MARLIN,98832,47.3512,767,WA,256.47327,98832,-119.112,728,"<Polygon><outerBoundaryIs><LinearRing><coordinates>-118.977791,47.508912 -119.127906,47.488017 -119.319811,47.43193 -119.331908,47.371444 -118.981091,47.159744 -118.980541,47.185588 -118.977791,47.508362</coordinates></LinearRing></outerBoundaryIs></Polygon>"
,Zip:,MAZAMA,98833,48.6911,223,WA,325.88201,98833,-120.246,196,"<Polygon><outerBoundaryIs><LinearRing><coordinates>-119.91477,48.714777 -119.931816,48.770313 -120.074232,48.694431 -120.345318,48.86764 -120.509729,48.652091 -120.454192,48.596555 -120.333221,48.545966</coordinates></LinearRing></outerBoundaryIs></Polygon>"
,Zip:,METHOW,98834,48.083,862,WA,158.24512,98834,-120.044,846,"<Polygon><outerBoundaryIs><LinearRing><coordinates>-120.030243,47.960355 -119.875179,47.960355 -119.902673,48.050534 -120.012097,48.079677 -119.965358,48.156659 -120.117122,48.246287 -120.238093,48.095623 -120.093478,48.019741</coordinates></LinearRing></outerBoundaryIs></Polygon>"
,Zip:,MOSES LAKE,98837,47.1725,32409,WA,327.28161,98837,-119.266,31998,"<Polygon><outerBoundaryIs><LinearRing><coordinates>-118.981091,47.159744 -119.331908,47.371444 -119.45068,47.257621 -119.49192,47.104207 -119.251077,46.986535 -118.981091,47.130051</coordinates></LinearRing></outerBoundaryIs></Polygon>"
,Zip:,OKANOGAN,98840,48.288,5273,WA,319.65472,98840,-119.593,5298,"<Polygon><outerBoundaryIs><LinearRing><coordinates>-119.673377,48.140162 -119.311013,48.115418 -119.547457,48.391453 -119.571101,48.450839 -119.728364,48.542667 -119.775103,48.335366</coordinates></LinearRing></outerBoundaryIs></Polygon>"
,Zip:,OMAK,98841,48.427,7776,WA,22.1296,98841,-119.513,7763,"<Polygon><outerBoundaryIs><LinearRing><coordinates>-119.547457,48.391453 -119.478173,48.479432 -119.571101,48.450839</coordinates></LinearRing></outerBoundaryIs></Polygon>"
,Zip:,ORONDO,98843,47.7042,1657,WA,63.38044,98843,-120.121,1569,"<Polygon><outerBoundaryIs><LinearRing><coordinates>-120.2084,47.746455 -120.255139,47.549052 -120.193554,47.585893 -120.121521,47.733808 -119.877929,47.786596 -119.974706,47.806391</coordinates></LinearRing></outerBoundaryIs></Polygon>"
,Zip:,OROVILLE,98844,48.9204,3800,WA,239.57391,98844,-119.296,3984,"<Polygon><outerBoundaryIs><LinearRing><coordinates>-119.53316,49.000159 -119.517214,48.815953 -119.047075,48.858843 -119.021231,49.000159</coordinates></LinearRing></outerBoundaryIs></Polygon>"
,Zip:,PALISADES,98845,47.4771,63,WA,46.00633,98845,-119.796,61,"<Polygon><outerBoundaryIs><LinearRing><coordinates>-119.70472,47.439628 -119.750359,47.540254 -119.878478,47.469321 -119.896074,47.408285</coordinates></LinearRing></outerBoundaryIs></Polygon>"
,Zip:,PATEROS,98846,48.0968,739,WA,22.53978,98846,-119.955,735,"<Polygon><outerBoundaryIs><LinearRing><coordinates>-120.012097,48.079677 -119.902673,48.050534 -119.877929,48.063181 -119.965358,48.156659</coordinates></LinearRing></outerBoundaryIs></Polygon>"
,Zip:,PESHASTIN,98847,47.4245,1838,WA,181.30123,98847,-120.638,1788,"<Polygon><outerBoundaryIs><LinearRing><coordinates>-120.439346,47.43193 -120.585611,47.43248 -120.637299,47.609538 -120.665342,47.462723 -120.946326,47.47262 -120.531724,47.315357 -120.458041,47.298861</coordinates></LinearRing></outerBoundaryIs></Polygon>"
,Zip:,QUINCY,98848,47.1906,10197,WA,489.08571,98848,-119.814,9956,"<Polygon><outerBoundaryIs><LinearRing><coordinates>-119.74706,47.337352 -119.597495,47.404436 -119.597495,47.441278 -119.70472,47.439628 -119.896074,47.408285 -120.004949,47.224079 -119.979655,46.979937 -119.556804,47.030525</coordinates></LinearRing></outerBoundaryIs></Polygon>"
,Zip:,RIVERSIDE,98849,48.5529,1907,WA,357.71692,98849,-119.669,1870,"<Polygon><outerBoundaryIs><LinearRing><coordinates>-119.775103,48.335366 -119.728364,48.542667 -119.571101,48.450839 -119.478173,48.479432 -119.287918,48.482182 -119.317061,48.601503 -119.708019,48.605902 -119.690423,48.69828 -119.906522,48.704329 -119.897724,48.425545 -119.890026,48.388154</coordinates></LinearRing></outerBoundaryIs></Polygon>"
,Zip:,ROCK ISLAND,98850,47.3804,1555,WA,124.55128,98850,-120.02,1310,"<Polygon><outerBoundaryIs><LinearRing><coordinates>-120.004949,47.224079 -119.896074,47.408285 -119.878478,47.469321 -120.179257,47.424232 -120.106675,47.374193 -120.193004,47.376393</coordinates></LinearRing></outerBoundaryIs></Polygon>"
,Zip:,SOAP LAKE,98851,47.3919,4143,WA,96.6747,98851,-119.449,4022,"<Polygon><outerBoundaryIs><LinearRing><coordinates>-119.319811,47.43193 -119.557904,47.441278 -119.597495,47.441278 -119.597495,47.404436 -119.45068,47.257621 -119.331908,47.371444</coordinates></LinearRing></outerBoundaryIs></Polygon>"
,Zip:,STEHEKIN,98852,48.2632,114,WA,739.4534,98852,-120.668,106,"<Polygon><outerBoundaryIs><LinearRing><coordinates>-120.238093,48.095623 -120.317825,48.124216 -120.588911,48.317221 -120.654895,48.522872 -120.701634,48.53167 -121.062898,48.459637 -121.001313,48.295776 -120.906186,48.163807 -120.817107,48.14841 -120.416801,47.976851 -120.200152,47.965854 -120.093478,48.019741</coordinates></LinearRing></outerBoundaryIs></Polygon>"
,Zip:,TONASKET,98855,48.6657,5664,WA,689.10552,98855,-119.243,5448,"<Polygon><outerBoundaryIs><LinearRing><coordinates>-119.708019,48.605902 -119.317061,48.601503 -119.287918,48.482182 -118.844173,48.438742 -118.835375,48.660889 -119.083366,48.714777 -119.047075,48.858843 -119.517214,48.815953 -119.690423,48.69828</coordinates></LinearRing></outerBoundaryIs></Polygon>"
,Zip:,TWISP,98856,48.3914,2457,WA,545.17204,98856,-120.326,2430,"<Polygon><outerBoundaryIs><LinearRing><coordinates>-119.890026,48.388154 -119.897724,48.425545 -120.132518,48.389803 -120.333221,48.545966 -120.454192,48.596555 -120.654895,48.522872 -120.588911,48.317221 -120.317825,48.124216 -120.155063,48.346364 -119.95821,48.27873</coordinates></LinearRing></outerBoundaryIs></Polygon>"
,Zip:,WARDEN,98857,47.0007,3938,WA,142.89615,98857,-119.068,3826,"<Polygon><outerBoundaryIs><LinearRing><coordinates>-118.981091,47.130051 -119.251077,46.986535 -119.267023,46.985435 -118.98274,46.911203 -118.877165,46.961241 -118.938751,47.042622</coordinates></LinearRing></outerBoundaryIs></Polygon>"
,Zip:,WATERVILLE,98858,47.6343,1885,WA,750.30592,98858,-119.735,1853,"<Polygon><outerBoundaryIs><LinearRing><coordinates>-119.597495,47.441278 -119.557904,47.441278 -119.329158,47.626584 -119.212586,47.809141 -119.212036,47.836084 -119.512265,47.844332 -119.53481,47.68487 -119.877929,47.786596 -120.121521,47.733808 -120.193554,47.585893 -120.108874,47.560599 -120.228196,47.488017 -120.179257,47.424232 -119.878478,47.469321 -119.750359,47.540254 -119.70472,47.439628</coordinates></LinearRing></outerBoundaryIs></Polygon>"
,Zip:,WAUCONDA,98859,48.8433,328,WA,203.87064,98859,-118.939,325,"<Polygon><outerBoundaryIs><LinearRing><coordinates>-118.837025,49.000159 -119.021231,49.000159 -119.047075,48.858843 -119.083366,48.714777 -118.835375,48.660889 -118.836475,48.82695</coordinates></LinearRing></outerBoundaryIs></Polygon>"
,Zip:,WINTHROP,98862,48.5214,1533,WA,204.81812,98862,-120.07,1509,"<Polygon><outerBoundaryIs><LinearRing><coordinates>-119.906522,48.704329 -119.91477,48.714777 -120.333221,48.545966 -120.132518,48.389803 -119.897724,48.425545</coordinates></LinearRing></outerBoundaryIs></Polygon>"
,Zip:,YAKIMA,98901,46.6697,28601,WA,158.87508,98901,-120.366,28335,"<Polygon><outerBoundaryIs><LinearRing><coordinates>-120.472888,46.532892 -120.147915,46.735245 -120.454192,46.819924 -120.450343,46.737444 -120.450893,46.737444 -120.519627,46.62582 -120.496532,46.577982</coordinates></LinearRing></outerBoundaryIs></Polygon>"
,Zip:,YAKIMA,98902,46.5956,43683,WA,9.58199,98902,-120.533,43506,"<Polygon><outerBoundaryIs><LinearRing><coordinates>-120.496532,46.577982 -120.519627,46.62582 -120.560317,46.623071 -120.561967,46.574682</coordinates></LinearRing></outerBoundaryIs></Polygon>"
,Zip:,YAKIMA,98903,46.5435,12580,WA,55.60653,98903,-120.653,12506,"<Polygon><outerBoundaryIs><LinearRing><coordinates>-120.652146,46.503199 -120.481136,46.520795 -120.472888,46.532892 -120.496532,46.577982 -120.561967,46.574682 -120.800061,46.558736 -120.894638,46.519695</coordinates></LinearRing></outerBoundaryIs></Polygon>"
,Zip:,YAKIMA,98908,46.6198,31877,WA,64.42963,98908,-120.66,31763,"<Polygon><outerBoundaryIs><LinearRing><coordinates>-120.560317,46.623071 -120.641698,46.696204 -120.703833,46.705552 -120.698335,46.694554 -120.751672,46.659912 -120.684038,46.620322 -120.800061,46.558736 -120.561967,46.574682</coordinates></LinearRing></outerBoundaryIs></Polygon>"
,Zip:,CLE ELUM,98922,47.3309,7600,WA,771.43587,98922,-121.016,7382,"<Polygon><outerBoundaryIs><LinearRing><coordinates>-121.338383,47.273567 -120.75882,47.095409 -120.531724,47.315357 -120.946326,47.47262 -121.113487,47.596891 -121.243256,47.540254 -121.430212,47.420383 -121.43516,47.293912</coordinates></LinearRing></outerBoundaryIs></Polygon>"
,Zip:,COWICHE,98923,46.6677,1399,WA,10.41494,98923,-120.778,1338,"<Polygon><outerBoundaryIs><LinearRing><coordinates>-120.751672,46.659912 -120.698335,46.694554 -120.834153,46.663212</coordinates></LinearRing></outerBoundaryIs></Polygon>"
,Zip:,ELLENSBURG,98926,47.0181,26032,WA,1075.80996,98926,-120.326,25605,"<Polygon><outerBoundaryIs><LinearRing><coordinates>-120.007148,47.215281 -120.097327,47.26202 -120.302428,47.26147 -120.458041,47.298861 -120.531724,47.315357 -120.75882,47.095409 -120.695035,47.012379 -120.853948,46.995883 -120.559218,46.955193 -120.450343,46.737444 -120.454192,46.819924 -120.147915,46.735245 -119.978005,46.736894</coordinates></LinearRing></outerBoundaryIs></Polygon>"
,Zip:,GRANDVIEW,98930,46.26,12719,WA,33.02495,98930,-119.931,12623,"<Polygon><outerBoundaryIs><LinearRing><coordinates>-119.874079,46.305796 -119.99945,46.257957 -119.866931,46.196372</coordinates></LinearRing></outerBoundaryIs></Polygon>"
,Zip:,GRANGER,98932,46.3432,4269,WA,26.28138,98932,-120.171,4259,"<Polygon><outerBoundaryIs><LinearRing><coordinates>-120.102276,46.315144 -120.146265,46.409721 -120.223247,46.37508 -120.151214,46.270604 -120.159462,46.317893</coordinates></LinearRing></outerBoundaryIs></Polygon>"
,Zip:,HARRAH,98933,46.4032,1205,WA,24.47269,98933,-120.617,1196,"<Polygon><outerBoundaryIs><LinearRing><coordinates>-120.691186,46.448212 -120.691186,46.443813 -120.544371,46.37508</coordinates></LinearRing></outerBoundaryIs></Polygon>"
,Zip:,MABTON,98935,46.1409,3919,WA,232.54707,98935,-120.047,3820,"<Polygon><outerBoundaryIs><LinearRing><coordinates>-120.199603,46.07815 -120.331021,46.041309 -119.969757,46.040759 -119.866381,46.040759 -119.866931,46.196372 -119.99945,46.257957 -120.159462,46.317893 -120.151214,46.270604 -120.163861,46.222216</coordinates></LinearRing></outerBoundaryIs></Polygon>"
,Zip:,MOXEE,98936,46.5884,3837,WA,315.81027,98936,-120.113,3813,"<Polygon><outerBoundaryIs><LinearRing><coordinates>-120.096777,46.481205 -119.905422,46.496601 -119.874629,46.517496 -119.874079,46.62692 -119.978005,46.736894 -120.147915,46.735245 -120.472888,46.532892 -120.481136,46.520795 -120.234244,46.493302</coordinates></LinearRing></outerBoundaryIs></Polygon>"
,Zip:,NACHES,98937,46.7443,4175,WA,1001.08859,98937,-121.157,4295,"<Polygon><outerBoundaryIs><LinearRing><coordinates>-120.641698,46.696204 -120.915533,46.911203 -121.379624,47.086611 -121.52204,46.874362 -121.455506,46.783633 -121.355979,46.715449 -121.423063,46.492752 -120.894638,46.519695 -120.800061,46.558736 -120.684038,46.620322 -120.751672,46.659912 -120.834153,46.663212 -120.979868,46.66926 -120.703833,46.705552</coordinates></LinearRing></outerBoundaryIs></Polygon>"
,Zip:,OUTLOOK,98938,46.4159,1830,WA,58.72646,98938,-120.058,1830,"<Polygon><outerBoundaryIs><LinearRing><coordinates>-120.102276,46.315144 -119.905422,46.496601 -120.096777,46.481205 -120.146265,46.409721</coordinates></LinearRing></outerBoundaryIs></Polygon>"
,Zip:,SELAH,98942,46.7962,15623,WA,214.88364,98942,-120.683,15477,"<Polygon><outerBoundaryIs><LinearRing><coordinates>-120.560317,46.623071 -120.519627,46.62582 -120.450893,46.737444 -120.640048,46.912303 -120.915533,46.911203 -120.641698,46.696204</coordinates></LinearRing></outerBoundaryIs></Polygon>"
,Zip:,SUNNYSIDE,98944,46.367,19940,WA,109.44412,98944,-119.971,19709,"<Polygon><outerBoundaryIs><LinearRing><coordinates>-120.102276,46.315144 -120.159462,46.317893 -119.99945,46.257957 -119.874079,46.305796 -119.874629,46.517496 -119.905422,46.496601</coordinates></LinearRing></outerBoundaryIs></Polygon>"
,Zip:,THORP,98946,47.0391,329,WA,458.71157,98946,-120.968,319,"<Polygon><outerBoundaryIs><LinearRing><coordinates>-120.640048,46.912303 -120.450893,46.737444 -120.450343,46.737444 -120.559218,46.955193 -120.853948,46.995883 -120.695035,47.012379 -120.75882,47.095409 -121.338383,47.273567 -121.379624,47.086611 -120.915533,46.911203</coordinates></LinearRing></outerBoundaryIs></Polygon>"
,Zip:,TIETON,98947,46.6832,2691,WA,42.69317,98947,-120.836,2506,"<Polygon><outerBoundaryIs><LinearRing><coordinates>-120.979868,46.66926 -120.834153,46.663212 -120.698335,46.694554 -120.703833,46.705552</coordinates></LinearRing></outerBoundaryIs></Polygon>"
,Zip:,TOPPENISH,98948,46.3385,12353,WA,102.2962,98948,-120.358,12674,"<Polygon><outerBoundaryIs><LinearRing><coordinates>-120.223247,46.37508 -120.314525,46.409721 -120.544371,46.367381 -120.622453,46.316793 -120.225446,46.314044 -120.163861,46.222216 -120.151214,46.270604</coordinates></LinearRing></outerBoundaryIs></Polygon>"
,Zip:,WAPATO,98951,46.457,14480,WA,131.08253,98951,-120.474,13970,"<Polygon><outerBoundaryIs><LinearRing><coordinates>-120.544371,46.37508 -120.544371,46.367381 -120.314525,46.409721 -120.368963,46.45811 -120.234244,46.493302 -120.481136,46.520795 -120.652146,46.503199 -120.544371,46.489453 -120.691186,46.448212</coordinates></LinearRing></outerBoundaryIs></Polygon>"
,Zip:,WHITE SWAN,98952,46.367,2499,WA,88.47886,98952,-120.726,2448,"<Polygon><outerBoundaryIs><LinearRing><coordinates>-120.544371,46.367381 -120.544371,46.37508 -120.691186,46.443813 -120.859996,46.445463 -120.862196,46.327241 -120.622453,46.316793</coordinates></LinearRing></outerBoundaryIs></Polygon>"
,Zip:,ZILLAH,98953,46.4383,6281,WA,60.72863,98953,-120.225,6141,"<Polygon><outerBoundaryIs><LinearRing><coordinates>-120.146265,46.409721 -120.096777,46.481205 -120.234244,46.493302 -120.368963,46.45811 -120.314525,46.409721 -120.223247,46.37508</coordinates></LinearRing></outerBoundaryIs></Polygon>"
,Zip:,CHATTAROY,99003,47.9229,4379,WA,70.41937,99003,-117.274,4300,"<Polygon><outerBoundaryIs><LinearRing><coordinates>-117.204461,47.962005 -117.349626,47.998296 -117.405163,47.89492 -117.240202,47.871826 -117.150023,47.905918</coordinates></LinearRing></outerBoundaryIs></Polygon>"
,Zip:,CHENEY,99004,47.4133,14804,WA,344.45763,99004,-117.632,14701,"<Polygon><outerBoundaryIs><LinearRing><coordinates>-117.666351,47.259821 -117.456301,47.259271 -117.467298,47.39069 -117.526684,47.458324 -117.443654,47.51551 -117.607515,47.594691 -117.80107,47.544103 -117.823064,47.421482 -117.823614,47.26037</coordinates></LinearRing></outerBoundaryIs></Polygon>"
,Zip:,COLBERT,99005,47.8453,6421,WA,44.12837,99005,-117.374,6553,"<Polygon><outerBoundaryIs><LinearRing><coordinates>-117.240202,47.871826 -117.405163,47.89492 -117.482145,47.85258 -117.355675,47.809691</coordinates></LinearRing></outerBoundaryIs></Polygon>"
,Zip:,DEER PARK,99006,47.9507,8227,WA,99.6836,99006,-117.46,8323,"<Polygon><outerBoundaryIs><LinearRing><coordinates>-117.535482,47.816289 -117.482145,47.85258 -117.405163,47.89492 -117.349626,47.998296 -117.41671,48.047234 -117.437056,48.047234 -117.50194,48.047784 -117.561876,47.845432</coordinates></LinearRing></outerBoundaryIs></Polygon>"
,Zip:,EDWALL,99008,47.5395,585,WA,184.74083,99008,-117.949,582,"<Polygon><outerBoundaryIs><LinearRing><coordinates>-117.823064,47.421482 -117.80107,47.544103 -117.819765,47.615037 -117.937987,47.657926 -118.090851,47.64363 -118.105148,47.523758 -118.111746,47.466572</coordinates></LinearRing></outerBoundaryIs></Polygon>"
,Zip:,ELK,99009,48.0241,2969,WA,61.25405,99009,-117.259,2937,"<Polygon><outerBoundaryIs><LinearRing><coordinates>-117.204461,47.962005 -117.114282,48.034587 -117.41671,48.047234 -117.349626,47.998296</coordinates></LinearRing></outerBoundaryIs></Polygon>"
,Zip:,FAIRCHILD AIR FORCE BASE,99011,47.6206,4322,WA,5.89046,99011,-117.648,4361,
,Zip:,FAIRFIELD,99012,47.3815,1020,WA,103.04651,99012,-117.193,1046,"<Polygon><outerBoundaryIs><LinearRing><coordinates>-117.040049,47.365945 -117.040049,47.412684 -117.193463,47.456124 -117.294089,47.458873 -117.2501,47.348899 -117.337529,47.361546 -117.251749,47.30326 -117.072492,47.318107 -117.040049,47.318107</coordinates></LinearRing></outerBoundaryIs></Polygon>"
,Zip:,FORD,99013,47.9241,1003,WA,50.62149,99013,-117.814,963,"<Polygon><outerBoundaryIs><LinearRing><coordinates>-117.727387,48.000495 -117.873102,47.906468 -117.866504,47.844882 -117.852207,47.838834 -117.760929,47.838834 -117.791172,47.867977</coordinates></LinearRing></outerBoundaryIs></Polygon>"
,Zip:,GREENACRES,99016,47.6248,8753,WA,25.96998,99016,-117.142,8644,"<Polygon><outerBoundaryIs><LinearRing><coordinates>-117.154422,47.678272 -117.183016,47.671673 -117.185215,47.604039 -117.07854,47.587543 -117.111532,47.682671</coordinates></LinearRing></outerBoundaryIs></Polygon>"
,Zip:,LAMONT,99017,47.1664,264,WA,145.23009,99017,-117.849,261,"<Polygon><outerBoundaryIs><LinearRing><coordinates>-117.847259,47.046471 -117.595968,47.239475 -117.666351,47.259821 -117.823614,47.26037 -117.959982,47.26037 -117.959432,47.072315</coordinates></LinearRing></outerBoundaryIs></Polygon>"
,Zip:,LATAH,99018,47.2922,248,WA,30.82628,99018,-117.169,231,"<Polygon><outerBoundaryIs><LinearRing><coordinates>-117.251749,47.30326 -117.24955,47.259821 -117.072492,47.318107</coordinates></LinearRing></outerBoundaryIs></Polygon>"
,Zip:,LIBERTY LAKE,99019,47.6373,5425,WA,22.34271,99019,-117.071,5069,"<Polygon><outerBoundaryIs><LinearRing><coordinates>-117.111532,47.682671 -117.07854,47.587543 -117.076341,47.579295 -117.041149,47.56005 -117.041149,47.654627 -117.041699,47.697517</coordinates></LinearRing></outerBoundaryIs></Polygon>"
,Zip:,MEAD,99021,47.8227,9132,WA,63.86603,99021,-117.227,8773,"<Polygon><outerBoundaryIs><LinearRing><coordinates>-117.150023,47.792095 -117.099435,47.899319 -117.150023,47.905918 -117.240202,47.871826 -117.355675,47.809691 -117.37767,47.772849 -117.395265,47.750854 -117.359524,47.752504</coordinates></LinearRing></outerBoundaryIs></Polygon>"
,Zip:,MEDICAL LAKE,99022,47.6085,7700,WA,77.66095,99022,-117.705,7586,"<Polygon><outerBoundaryIs><LinearRing><coordinates>-117.626211,47.629883 -117.733435,47.701366 -117.819765,47.615037 -117.80107,47.544103 -117.607515,47.594691 -117.626211,47.628233</coordinates></LinearRing></outerBoundaryIs></Polygon>"
,Zip:,MICA,99023,47.5567,151,WA,19.87179,99023,-117.158,148,"<Polygon><outerBoundaryIs><LinearRing><coordinates>-117.197312,47.522658 -117.076341,47.579295 -117.07854,47.587543 -117.185215,47.604039 -117.209959,47.590292 -117.215458,47.567748</coordinates></LinearRing></outerBoundaryIs></Polygon>"
,Zip:,NEWMAN LAKE,99025,47.8098,4806,WA,53.27445,99025,-117.082,4756,"<Polygon><outerBoundaryIs><LinearRing><coordinates>-117.099435,47.899319 -117.150023,47.792095 -117.12143,47.749755 -117.041699,47.701366 -117.042249,47.816289 -117.042249,47.926263</coordinates></LinearRing></outerBoundaryIs></Polygon>"
,Zip:,NINE MILE FALLS,99026,47.8047,8111,WA,78.44425,99026,-117.643,7957,"<Polygon><outerBoundaryIs><LinearRing><coordinates>-117.535482,47.816289 -117.561876,47.845432 -117.608615,47.839933 -117.760929,47.838834 -117.852207,47.838834 -117.733985,47.787146 -117.507439,47.717862 -117.498641,47.719512</coordinates></LinearRing></outerBoundaryIs></Polygon>"
,Zip:,OTIS ORCHARDS,99027,47.71,5152,WA,15.66206,99027,-117.122,5185,"<Polygon><outerBoundaryIs><LinearRing><coordinates>-117.041699,47.697517 -117.041699,47.701366 -117.12143,47.749755 -117.162121,47.699717 -117.154422,47.678272 -117.111532,47.682671</coordinates></LinearRing></outerBoundaryIs></Polygon>"
,Zip:,REARDAN,99029,47.7368,1391,WA,152.56899,99029,-117.87,1370,"<Polygon><outerBoundaryIs><LinearRing><coordinates>-117.819765,47.615037 -117.733435,47.701366 -117.733985,47.787146 -117.852207,47.838834 -117.866504,47.844882 -117.916542,47.830586 -118.058959,47.789345 -117.937987,47.657926</coordinates></LinearRing></outerBoundaryIs></Polygon>"
,Zip:,ROCKFORD,99030,47.4829,830,WA,63.95737,99030,-117.108,837,"<Polygon><outerBoundaryIs><LinearRing><coordinates>-117.076341,47.579295 -117.197312,47.522658 -117.193463,47.456124 -117.040049,47.412684 -117.040599,47.523208 -117.041149,47.56005</coordinates></LinearRing></outerBoundaryIs></Polygon>"
,Zip:,SPANGLE,99031,47.4278,1262,WA,86.05942,99031,-117.375,1254,"<Polygon><outerBoundaryIs><LinearRing><coordinates>-117.2501,47.348899 -117.294089,47.458873 -117.371621,47.528707 -117.443654,47.51551 -117.526684,47.458324 -117.467298,47.39069 -117.337529,47.361546</coordinates></LinearRing></outerBoundaryIs></Polygon>"
,Zip:,SPRAGUE,99032,47.336,781,WA,236.66553,99032,-118.024,776,"<Polygon><outerBoundaryIs><LinearRing><coordinates>-117.823614,47.26037 -117.823064,47.421482 -118.111746,47.466572 -118.234917,47.26257 -118.133191,47.26147 -118.316298,47.162494 -117.959982,47.26037</coordinates></LinearRing></outerBoundaryIs></Polygon>"
,Zip:,TEKOA,99033,47.2333,1021,WA,63.68117,99033,-117.14,1008,"<Polygon><outerBoundaryIs><LinearRing><coordinates>-117.040049,47.241125 -117.040049,47.318107 -117.072492,47.318107 -117.24955,47.259821 -117.257248,47.167442 -117.171468,47.170742 -117.040049,47.202084</coordinates></LinearRing></outerBoundaryIs></Polygon>"
,Zip:,TUMTUM,99034,47.8985,519,WA,40.2427,99034,-117.698,576,"<Polygon><outerBoundaryIs><LinearRing><coordinates>-117.608615,47.839933 -117.67185,47.955956 -117.791172,47.867977 -117.760929,47.838834</coordinates></LinearRing></outerBoundaryIs></Polygon>"
,Zip:,VALLEYFORD,99036,47.52,1298,WA,39.83588,99036,-117.27,1295,"<Polygon><outerBoundaryIs><LinearRing><coordinates>-117.197312,47.522658 -117.215458,47.567748 -117.284192,47.577096 -117.370521,47.540254 -117.371621,47.528707 -117.294089,47.458873 -117.193463,47.456124</coordinates></LinearRing></outerBoundaryIs></Polygon>"
,Zip:,VERADALE,99037,47.6316,10681,WA,8.33433,99037,-117.199,10501,"<Polygon><outerBoundaryIs><LinearRing><coordinates>-117.185215,47.604039 -117.183016,47.671673 -117.223706,47.627684 -117.209959,47.590292</coordinates></LinearRing></outerBoundaryIs></Polygon>"
,Zip:,WELLPINIT,99040,47.885,1030,WA,95.98607,99040,-118.005,1001,"<Polygon><outerBoundaryIs><LinearRing><coordinates>-117.916542,47.830586 -117.866504,47.844882 -117.873102,47.906468 -118.083153,47.973552 -118.101848,47.829486</coordinates></LinearRing></outerBoundaryIs></Polygon>"
,Zip:,ADDY,99101,48.3721,1561,WA,82.32412,99101,-117.925,1445,"<Polygon><outerBoundaryIs><LinearRing><coordinates>-118.005621,48.458537 -118.00892,48.338116 -118.020468,48.311722 -118.040813,48.267732 -117.795571,48.40465</coordinates></LinearRing></outerBoundaryIs></Polygon>"
,Zip:,ALMIRA,99103,47.7347,721,WA,224.81821,99103,-118.894,719,"<Polygon><outerBoundaryIs><LinearRing><coordinates>-118.689659,47.930662 -118.973392,47.933961 -119.043776,47.860279 -118.977791,47.508912 -118.977791,47.508362 -118.785337,47.508362 -118.925004,47.710714 -118.850771,47.874575 -118.717703,47.85588</coordinates></LinearRing></outerBoundaryIs></Polygon>"
,Zip:,BENGE,99105,46.896,23,WA,20.59343,99105,-118.061,23,"<Polygon><outerBoundaryIs><LinearRing><coordinates>-118.029266,46.912853 -118.171132,46.887009 -118.004521,46.845219</coordinates></LinearRing></outerBoundaryIs></Polygon>"
,Zip:,BOYDS,99107,48.7002,216,WA,402.50985,99107,-118.338,209,"<Polygon><outerBoundaryIs><LinearRing><coordinates>-118.364686,49.000159 -118.381182,48.891285 -118.424072,48.758766 -118.442768,48.6147 -118.64402,48.597104 -118.514801,48.481082 -118.214572,48.481632 -118.22392,49.000159</coordinates></LinearRing></outerBoundaryIs></Polygon>"
,Zip:,CHEWELAH,99109,48.2993,4806,WA,295.1834,99109,-117.723,4744,"<Polygon><outerBoundaryIs><LinearRing><coordinates>-117.50084,48.413998 -117.795571,48.40465 -118.040813,48.267732 -118.040813,48.261684 -117.983626,48.166556 -117.603116,48.197349 -117.500291,48.23694</coordinates></LinearRing></outerBoundaryIs></Polygon>"
,Zip:,CLAYTON,99110,47.9666,2413,WA,63.85005,99110,-117.584,2094,"<Polygon><outerBoundaryIs><LinearRing><coordinates>-117.608615,47.839933 -117.561876,47.845432 -117.50194,48.047784 -117.643807,48.013142 -117.67185,47.955956</coordinates></LinearRing></outerBoundaryIs></Polygon>"
,Zip:,COLFAX,99111,46.864,4110,WA,262.35174,99111,-117.423,4121,"<Polygon><outerBoundaryIs><LinearRing><coordinates>-117.269895,46.986535 -117.380969,47.058018 -117.439805,47.041522 -117.524485,46.9222 -117.58772,46.858415 -117.438155,46.773735 -117.685047,46.705002 -117.466749,46.701702 -117.215458,46.843569 -117.270445,46.912303</coordinates></LinearRing></outerBoundaryIs></Polygon>"
,Zip:,COLTON,99113,46.5856,885,WA,106.9121,99113,-117.221,845,"<Polygon><outerBoundaryIs><LinearRing><coordinates>-117.0395,46.603826 -117.0395,46.620872 -117.431007,46.658263 -117.228655,46.462509 -117.20831,46.450962 -117.0395,46.587879</coordinates></LinearRing></outerBoundaryIs></Polygon>"
,Zip:,COLVILLE,99114,48.6715,12268,WA,718.52113,99114,-117.733,12286,"<Polygon><outerBoundaryIs><LinearRing><coordinates>-117.500291,48.582258 -117.626211,48.65594 -117.564076,48.78571 -117.429357,49.000709 -117.994624,48.812653 -117.901146,48.807705 -117.956133,48.696081 -118.067207,48.462386 -118.00892,48.338116 -118.005621,48.458537 -117.795571,48.40465 -117.50084,48.413998 -117.500291,48.429394</coordinates></LinearRing></outerBoundaryIs></Polygon>"
,Zip:,COULEE CITY,99115,47.5213,1029,WA,172.38871,99115,-119.333,1028,"<Polygon><outerBoundaryIs><LinearRing><coordinates>-119.127906,47.488017 -119.329158,47.626584 -119.557904,47.441278 -119.319811,47.43193</coordinates></LinearRing></outerBoundaryIs></Polygon>"
,Zip:,COULEE DAM,99116,48.2608,4385,WA,824.7206,99116,-119.174,4380,"<Polygon><outerBoundaryIs><LinearRing><coordinates>-119.61839,47.999396 -119.119658,48.15116 -118.98384,47.969153 -119.001986,47.962005 -118.98219,47.955956 -118.846372,47.965304 -118.846372,48.237489 -118.844173,48.435992 -118.844173,48.438742 -119.287918,48.482182 -119.478173,48.479432 -119.547457,48.391453 -119.311013,48.115418 -119.673377,48.140162 -119.715717,48.100572</coordinates></LinearRing></outerBoundaryIs></Polygon>"
,Zip:,CRESTON,99117,47.8194,659,WA,135.11103,99117,-118.539,651,"<Polygon><outerBoundaryIs><LinearRing><coordinates>-118.427371,47.81299 -118.485108,47.751404 -118.407576,47.694218 -118.323446,47.81354 -118.689659,47.930662 -118.717703,47.85588 -118.613777,47.717862 -118.510952,47.758553</coordinates></LinearRing></outerBoundaryIs></Polygon>"
,Zip:,CURLEW,99118,48.8985,1091,WA,234.76294,99118,-118.624,1077,"<Polygon><outerBoundaryIs><LinearRing><coordinates>-118.545044,48.78516 -118.424072,48.758766 -118.381182,48.891285 -118.498305,49.000159 -118.837025,49.000159 -118.836475,48.82695 -118.60333,48.855543</coordinates></LinearRing></outerBoundaryIs></Polygon>"
,Zip:,CUSICK,99119,48.4853,629,WA,144.58482,99119,-117.388,628,"<Polygon><outerBoundaryIs><LinearRing><coordinates>-117.359524,48.6147 -117.500291,48.582258 -117.500291,48.429394 -117.277043,48.315571 -117.259448,48.48988</coordinates></LinearRing></outerBoundaryIs></Polygon>"
,Zip:,DANVILLE,99121,48.9641,55,WA,25.00476,99121,-118.437,54,"<Polygon><outerBoundaryIs><LinearRing><coordinates>-118.364686,49.000159 -118.498305,49.000159 -118.381182,48.891285</coordinates></LinearRing></outerBoundaryIs></Polygon>"
,Zip:,DAVENPORT,99122,47.7159,3071,WA,381.44836,99122,-118.209,3007,"<Polygon><outerBoundaryIs><LinearRing><coordinates>-118.105148,47.523758 -118.090851,47.64363 -117.937987,47.657926 -118.058959,47.789345 -117.916542,47.830586 -118.101848,47.829486 -118.211822,47.945508 -118.334993,47.893821 -118.323446,47.81354 -118.407576,47.694218 -118.416924,47.568847</coordinates></LinearRing></outerBoundaryIs></Polygon>"
,Zip:,ELECTRIC CITY,99123,47.8916,1098,WA,30.17229,99123,-119.134,1088,"<Polygon><outerBoundaryIs><LinearRing><coordinates>-119.212586,47.809141 -119.091614,47.871276 -119.020131,47.942209 -119.120208,47.946608 -119.212036,47.836084</coordinates></LinearRing></outerBoundaryIs></Polygon>"
,Zip:,ENDICOTT,99125,46.9408,957,WA,255.88348,99125,-117.797,952,"<Polygon><outerBoundaryIs><LinearRing><coordinates>-118.004521,46.845219 -117.997923,46.823224 -117.58772,46.858415 -117.524485,46.9222 -117.847259,47.046471 -117.959432,47.072315 -118.032565,46.991484 -118.029266,46.912853</coordinates></LinearRing></outerBoundaryIs></Polygon>"
,Zip:,EVANS,99126,48.7563,466,WA,41.03089,99126,-117.972,459,"<Polygon><outerBoundaryIs><LinearRing><coordinates>-118.014419,48.688933 -117.956133,48.696081 -117.901146,48.807705 -117.994624,48.812653</coordinates></LinearRing></outerBoundaryIs></Polygon>"
,Zip:,FARMINGTON,99128,47.091,410,WA,84.09817,99128,-117.102,405,"<Polygon><outerBoundaryIs><LinearRing><coordinates>-117.171468,47.170742 -117.213258,47.077814 -117.0395,46.96729 -117.0395,47.127302 -117.040049,47.154795 -117.040049,47.202084</coordinates></LinearRing></outerBoundaryIs></Polygon>"
,Zip:,FRUITLAND,99129,47.9989,713,WA,136.16619,99129,-118.201,699,"<Polygon><outerBoundaryIs><LinearRing><coordinates>-118.083153,47.973552 -118.063358,48.047234 -118.13594,48.130265 -118.261311,48.040086 -118.376783,48.034038 -118.334993,47.893821 -118.211822,47.945508 -118.101848,47.829486</coordinates></LinearRing></outerBoundaryIs></Polygon>"
,Zip:,GARFIELD,99130,46.9787,839,WA,72.01379,99130,-117.18,835,"<Polygon><outerBoundaryIs><LinearRing><coordinates>-117.0395,46.96729 -117.213258,47.077814 -117.269895,46.986535 -117.270445,46.912303 -117.0395,46.949694</coordinates></LinearRing></outerBoundaryIs></Polygon>"
,Zip:,GIFFORD,99131,48.2788,220,WA,32.95506,99131,-118.107,218,"<Polygon><outerBoundaryIs><LinearRing><coordinates>-118.17773,48.217144 -118.040813,48.261684 -118.040813,48.267732 -118.020468,48.311722 -118.18048,48.418397</coordinates></LinearRing></outerBoundaryIs></Polygon>"
,Zip:,GRAND COULEE,99133,47.9131,1142,WA,27.3869,99133,-119.029,1156,"<Polygon><outerBoundaryIs><LinearRing><coordinates>-119.020131,47.942209 -119.091614,47.871276 -119.043776,47.860279 -118.973392,47.933961 -118.98219,47.955956 -119.001986,47.962005 -119.120208,47.946608</coordinates></LinearRing></outerBoundaryIs></Polygon>"
,Zip:,HARRINGTON,99134,47.4186,764,WA,323.45767,99134,-118.327,773,"<Polygon><outerBoundaryIs><LinearRing><coordinates>-118.111746,47.466572 -118.105148,47.523758 -118.416924,47.568847 -118.540095,47.507812 -118.487307,47.26092 -118.234917,47.26257</coordinates></LinearRing></outerBoundaryIs></Polygon>"
,Zip:,HARTLINE,99135,47.6808,350,WA,289.43227,99135,-119.118,348,"<Polygon><outerBoundaryIs><LinearRing><coordinates>-119.043776,47.860279 -119.091614,47.871276 -119.212586,47.809141 -119.329158,47.626584 -119.127906,47.488017 -118.977791,47.508912</coordinates></LinearRing></outerBoundaryIs></Polygon>"
,Zip:,HAY,99136,46.6863,12,WA,8.83936,99136,-117.963,12,
,Zip:,HUNTERS,99137,48.1514,425,WA,97.776,99137,-118.093,421,"<Polygon><outerBoundaryIs><LinearRing><coordinates>-117.983626,48.166556 -118.040813,48.261684 -118.17773,48.217144 -118.261311,48.040086 -118.13594,48.130265 -118.063358,48.047234 -118.020468,48.059881</coordinates></LinearRing></outerBoundaryIs></Polygon>"
,Zip:,INCHELIUM,99138,48.3031,1186,WA,652.03909,99138,-118.474,1173,"<Polygon><outerBoundaryIs><LinearRing><coordinates>-118.846372,48.237489 -118.593432,48.227042 -118.579136,48.044485 -118.47576,48.147311 -118.270109,48.059332 -118.147488,48.260584 -118.208523,48.481632 -118.214572,48.481632 -118.514801,48.481082 -118.844173,48.435992</coordinates></LinearRing></outerBoundaryIs></Polygon>"
,Zip:,IONE,99139,48.6756,1450,WA,424.31028,99139,-117.276,1451,"<Polygon><outerBoundaryIs><LinearRing><coordinates>-117.035101,48.545417 -117.032901,48.791209 -117.564076,48.78571 -117.626211,48.65594 -117.500291,48.582258 -117.359524,48.6147 -117.259448,48.48988 -117.03565,48.499777</coordinates></LinearRing></outerBoundaryIs></Polygon>"
,Zip:,KELLER,99140,48.0555,471,WA,417.83787,99140,-118.62,472,"<Polygon><outerBoundaryIs><LinearRing><coordinates>-118.410875,47.839933 -118.403727,48.031288 -118.270109,48.059332 -118.47576,48.147311 -118.579136,48.044485 -118.593432,48.227042 -118.846372,48.237489 -118.846372,47.965304</coordinates></LinearRing></outerBoundaryIs></Polygon>"
,Zip:,KETTLE FALLS,99141,48.7809,5428,WA,361.00458,99141,-118.076,5353,"<MultiGeometry><Polygon><outerBoundaryIs><LinearRing><coordinates>-117.911044,48.853894 -117.853307,48.95452 -117.932488,49.000159 -118.22392,49.000159 -118.214572,48.481632 -118.208523,48.481632</coordinates></LinearRing></outerBoundaryIs></Polygon><Polygon><outerBoundaryIs><LinearRing><coordinates>-117.956133,48.696081 -118.014419,48.688933 -118.13649,48.539368 -118.067207,48.462386</coordinates></LinearRing></outerBoundaryIs></Polygon></MultiGeometry>"
,Zip:,LACROSSE,99143,46.7185,885,WA,443.2241,99143,-117.897,878,"<Polygon><outerBoundaryIs><LinearRing><coordinates>-118.121094,46.519146 -117.469498,46.700053 -117.466749,46.701702 -117.685047,46.705002 -117.438155,46.773735 -117.58772,46.858415 -117.997923,46.823224 -118.209623,46.739094 -118.215672,46.588979</coordinates></LinearRing></outerBoundaryIs></Polygon>"
,Zip:,LINCOLN,99147,47.7817,28,WA,18.20406,99147,-118.47,28,"<Polygon><outerBoundaryIs><LinearRing><coordinates>-118.427371,47.81299 -118.510952,47.758553 -118.485108,47.751404</coordinates></LinearRing></outerBoundaryIs></Polygon>"
,Zip:,LOON LAKE,99148,48.1105,2367,WA,112.68723,99148,-117.575,2317,"<Polygon><outerBoundaryIs><LinearRing><coordinates>-117.437056,48.047234 -117.50194,48.217694 -117.500291,48.23694 -117.603116,48.197349 -117.741134,48.056582 -117.643807,48.013142 -117.50194,48.047784</coordinates></LinearRing></outerBoundaryIs></Polygon>"
,Zip:,MALO,99150,48.8044,294,WA,17.77851,99150,-118.578,287,"<Polygon><outerBoundaryIs><LinearRing><coordinates>-118.60333,48.855543 -118.647319,48.767014 -118.545044,48.78516</coordinates></LinearRing></outerBoundaryIs></Polygon>"
,Zip:,METALINE FALLS,99153,48.8941,652,WA,281.11825,99153,-117.267,663,"<Polygon><outerBoundaryIs><LinearRing><coordinates>-117.032901,48.791209 -117.032351,48.846745 -117.032351,48.999059 -117.429357,49.000709 -117.564076,48.78571</coordinates></LinearRing></outerBoundaryIs></Polygon>"
,Zip:,NEWPORT,99156,48.2257,8421,WA,507.11663,99156,-117.2,8288,"<Polygon><outerBoundaryIs><LinearRing><coordinates>-117.259448,48.48988 -117.277043,48.315571 -117.234154,48.244088 -117.50194,48.217694 -117.437056,48.047234 -117.41671,48.047234 -117.114282,48.034587 -117.204461,47.962005 -117.150023,47.905918 -117.099435,47.899319 -117.042249,47.926263 -117.042249,47.943309 -117.042249,47.977401 -117.041149,48.085725 -117.0373,48.260034 -117.03565,48.499777</coordinates></LinearRing></outerBoundaryIs></Polygon>"
,Zip:,NORTHPORT,99157,48.9555,194,WA,63.49475,99157,-117.806,191,"<Polygon><outerBoundaryIs><LinearRing><coordinates>-117.636109,49.000709 -117.932488,49.000159 -117.853307,48.95452 -117.911044,48.853894</coordinates></LinearRing></outerBoundaryIs></Polygon>"
,Zip:,OAKESDALE,99158,47.0957,576,WA,64.12418,99158,-117.252,565,"<Polygon><outerBoundaryIs><LinearRing><coordinates>-117.269895,46.986535 -117.213258,47.077814 -117.171468,47.170742 -117.257248,47.167442 -117.314984,47.127302 -117.380969,47.058018</coordinates></LinearRing></outerBoundaryIs></Polygon>"
,Zip:,ODESSA,99159,47.3571,1392,WA,452.55766,99159,-118.752,1400,"<Polygon><outerBoundaryIs><LinearRing><coordinates>-118.980541,47.185588 -118.487307,47.26092 -118.540095,47.507812 -118.785337,47.508362 -118.977791,47.508362</coordinates></LinearRing></outerBoundaryIs></Polygon>"
,Zip:,PALOUSE,99161,46.8916,1326,WA,49.53573,99161,-117.146,1324,"<Polygon><outerBoundaryIs><LinearRing><coordinates>-117.215458,46.843569 -117.0395,46.860065 -117.0395,46.907354 -117.0395,46.949694 -117.270445,46.912303</coordinates></LinearRing></outerBoundaryIs></Polygon>"
,Zip:,PULLMAN,99163,46.7332,26225,WA,225.88989,99163,-117.196,25979,"<Polygon><outerBoundaryIs><LinearRing><coordinates>-117.0395,46.620872 -117.0395,46.825973 -117.0395,46.860065 -117.215458,46.843569 -117.466749,46.701702 -117.469498,46.700053 -117.431007,46.658263</coordinates></LinearRing></outerBoundaryIs></Polygon>"
,Zip:,PULLMAN,99164,46.7263,847,WA,0.46648,99164,-117.152,855,
,Zip:,REPUBLIC,99166,48.6449,3084,WA,393.58318,99166,-118.676,3052,"<Polygon><outerBoundaryIs><LinearRing><coordinates>-118.844173,48.438742 -118.844173,48.435992 -118.514801,48.481082 -118.64402,48.597104 -118.442768,48.6147 -118.424072,48.758766 -118.545044,48.78516 -118.647319,48.767014 -118.60333,48.855543 -118.836475,48.82695 -118.835375,48.660889</coordinates></LinearRing></outerBoundaryIs></Polygon>"
,Zip:,RICE,99167,48.4106,644,WA,70.79347,99167,-118.113,637,"<Polygon><outerBoundaryIs><LinearRing><coordinates>-118.00892,48.338116 -118.067207,48.462386 -118.13649,48.539368 -118.18048,48.418397 -118.020468,48.311722</coordinates></LinearRing></outerBoundaryIs></Polygon>"
,Zip:,RITZVILLE,99169,47.1121,2679,WA,773.08939,99169,-118.42,2700,"<Polygon><outerBoundaryIs><LinearRing><coordinates>-118.938751,47.042622 -118.7309,47.078913 -118.482358,46.898006 -118.204124,46.903505 -118.300901,46.957392 -118.122743,47.05197 -118.032565,46.991484 -117.959432,47.072315 -117.959982,47.26037 -118.316298,47.162494 -118.133191,47.26147 -118.234917,47.26257 -118.487307,47.26092 -118.980541,47.185588 -118.981091,47.159744 -118.981091,47.130051</coordinates></LinearRing></outerBoundaryIs></Polygon>"
,Zip:,ROSALIA,99170,47.2465,1360,WA,149.72332,99170,-117.396,1341,"<Polygon><outerBoundaryIs><LinearRing><coordinates>-117.24955,47.259821 -117.251749,47.30326 -117.337529,47.361546 -117.467298,47.39069 -117.456301,47.259271 -117.666351,47.259821 -117.595968,47.239475 -117.450802,47.169642 -117.314984,47.127302 -117.257248,47.167442</coordinates></LinearRing></outerBoundaryIs></Polygon>"
,Zip:,SAINT JOHN,99171,47.1005,1067,WA,242.64083,99171,-117.609,1061,"<Polygon><outerBoundaryIs><LinearRing><coordinates>-117.524485,46.9222 -117.439805,47.041522 -117.450802,47.169642 -117.595968,47.239475 -117.847259,47.046471</coordinates></LinearRing></outerBoundaryIs></Polygon>"
,Zip:,SPRINGDALE,99173,47.9994,983,WA,138.44589,99173,-117.888,952,"<Polygon><outerBoundaryIs><LinearRing><coordinates>-117.873102,47.906468 -117.727387,48.000495 -117.791172,47.867977 -117.67185,47.955956 -117.643807,48.013142 -117.741134,48.056582 -118.020468,48.059881 -118.063358,48.047234 -118.083153,47.973552</coordinates></LinearRing></outerBoundaryIs></Polygon>"
,Zip:,THORNTON,99176,47.1036,184,WA,43.00989,99176,-117.38,180,"<Polygon><outerBoundaryIs><LinearRing><coordinates>-117.380969,47.058018 -117.314984,47.127302 -117.450802,47.169642 -117.439805,47.041522</coordinates></LinearRing></outerBoundaryIs></Polygon>"
,Zip:,UNIONTOWN,99179,46.4866,400,WA,59.31974,99179,-117.108,390,"<Polygon><outerBoundaryIs><LinearRing><coordinates>-117.0395,46.54169 -117.0395,46.587879 -117.20831,46.450962 -117.0395,46.433916</coordinates></LinearRing></outerBoundaryIs></Polygon>"
,Zip:,USK,99180,48.3144,543,WA,102.14942,99180,-117.402,538,"<Polygon><outerBoundaryIs><LinearRing><coordinates>-117.50194,48.217694 -117.234154,48.244088 -117.277043,48.315571 -117.500291,48.429394 -117.50084,48.413998 -117.500291,48.23694</coordinates></LinearRing></outerBoundaryIs></Polygon>"
,Zip:,VALLEY,99181,48.133,2042,WA,139.06286,99181,-117.819,2009,"<Polygon><outerBoundaryIs><LinearRing><coordinates>-117.603116,48.197349 -117.983626,48.166556 -118.020468,48.059881 -117.741134,48.056582</coordinates></LinearRing></outerBoundaryIs></Polygon>"
,Zip:,WILBUR,99185,47.6657,1324,WA,376.67322,99185,-118.667,1320,"<Polygon><outerBoundaryIs><LinearRing><coordinates>-118.850771,47.874575 -118.925004,47.710714 -118.785337,47.508362 -118.540095,47.507812 -118.416924,47.568847 -118.407576,47.694218 -118.485108,47.751404 -118.510952,47.758553 -118.613777,47.717862 -118.717703,47.85588</coordinates></LinearRing></outerBoundaryIs></Polygon>"
,Zip:,SPOKANE,99201,47.664,11360,WA,2.78633,99201,-117.435,11365,"<Polygon><outerBoundaryIs><LinearRing><coordinates>-117.451902,47.681021 -117.453552,47.654627 -117.411212,47.651328 -117.411212,47.671673</coordinates></LinearRing></outerBoundaryIs></Polygon>"
,Zip:,SPOKANE,99202,47.6571,18985,WA,6.0623,99202,-117.379,18959,"<Polygon><outerBoundaryIs><LinearRing><coordinates>-117.363923,47.671673 -117.411212,47.671673 -117.411212,47.651328 -117.411212,47.64253 -117.373821,47.64088 -117.346877,47.64253 -117.346877,47.671673</coordinates></LinearRing></outerBoundaryIs></Polygon>"
,Zip:,SPOKANE,99203,47.6288,20387,WA,5.1342,99203,-117.406,20469,"<Polygon><outerBoundaryIs><LinearRing><coordinates>-117.373821,47.64088 -117.411212,47.64253 -117.439805,47.64088 -117.41726,47.613937</coordinates></LinearRing></outerBoundaryIs></Polygon>"
,Zip:,SPOKANE,99204,47.6492,9727,WA,1.38515,99204,-117.431,9743,"<Polygon><outerBoundaryIs><LinearRing><coordinates>-117.411212,47.64253 -117.411212,47.651328 -117.453552,47.654627 -117.439805,47.64088</coordinates></LinearRing></outerBoundaryIs></Polygon>"
,Zip:,SPOKANE,99205,47.6964,42945,WA,10.51762,99205,-117.452,43020,"<Polygon><outerBoundaryIs><LinearRing><coordinates>-117.498641,47.719512 -117.507439,47.717862 -117.451902,47.681021 -117.411212,47.671673 -117.411212,47.715113</coordinates></LinearRing></outerBoundaryIs></Polygon>"
,Zip:,SPOKANE,99206,47.6261,31858,WA,24.34073,99206,-117.259,31318,"<Polygon><outerBoundaryIs><LinearRing><coordinates>-117.215458,47.567748 -117.209959,47.590292 -117.223706,47.627684 -117.240202,47.705215 -117.283092,47.700266 -117.304537,47.629883 -117.284192,47.577096</coordinates></LinearRing></outerBoundaryIs></Polygon>"
,Zip:,SPOKANE,99207,47.6932,38807,WA,6.47416,99207,-117.388,38747,"<Polygon><outerBoundaryIs><LinearRing><coordinates>-117.411212,47.715113 -117.411212,47.671673 -117.363923,47.671673 -117.389767,47.715113</coordinates></LinearRing></outerBoundaryIs></Polygon>"
,Zip:,SPOKANE,99208,47.7752,34936,WA,44.45781,99208,-117.461,34408,"<Polygon><outerBoundaryIs><LinearRing><coordinates>-117.395265,47.750854 -117.37767,47.772849 -117.355675,47.809691 -117.482145,47.85258 -117.535482,47.816289 -117.498641,47.719512 -117.411212,47.715113 -117.389767,47.715113 -117.359524,47.752504</coordinates></LinearRing></outerBoundaryIs></Polygon>"
,Zip:,SPOKANE,99212,47.6649,18302,WA,12.45024,99212,-117.309,17719,"<Polygon><outerBoundaryIs><LinearRing><coordinates>-117.283092,47.700266 -117.346877,47.671673 -117.346877,47.64253 -117.304537,47.629883</coordinates></LinearRing></outerBoundaryIs></Polygon>"
,Zip:,SPOKANE,99216,47.6785,21953,WA,13.00771,99216,-117.209,21914,"<Polygon><outerBoundaryIs><LinearRing><coordinates>-117.183016,47.671673 -117.154422,47.678272 -117.162121,47.699717 -117.240202,47.705215 -117.223706,47.627684</coordinates></LinearRing></outerBoundaryIs></Polygon>"
,Zip:,SPOKANE,99217,47.7383,13374,WA,52.49932,99217,-117.254,13604,"<Polygon><outerBoundaryIs><LinearRing><coordinates>-117.283092,47.700266 -117.240202,47.705215 -117.162121,47.699717 -117.12143,47.749755 -117.150023,47.792095 -117.359524,47.752504 -117.389767,47.715113 -117.363923,47.671673 -117.346877,47.671673</coordinates></LinearRing></outerBoundaryIs></Polygon>"
,Zip:,SPOKANE,99218,47.7595,11585,WA,6.71068,99218,-117.412,11580,
,Zip:,SPOKANE,99223,47.5906,26341,WA,28.34343,99223,-117.344,26957,"<Polygon><outerBoundaryIs><LinearRing><coordinates>-117.304537,47.629883 -117.346877,47.64253 -117.373821,47.64088 -117.41726,47.613937 -117.370521,47.540254 -117.284192,47.577096</coordinates></LinearRing></outerBoundaryIs></Polygon>"
,Zip:,SPOKANE,99224,47.6536,17591,WA,116.09999,99224,-117.545,17057,"<Polygon><outerBoundaryIs><LinearRing><coordinates>-117.41726,47.613937 -117.439805,47.64088 -117.453552,47.654627 -117.451902,47.681021 -117.507439,47.717862 -117.733985,47.787146 -117.733435,47.701366 -117.626211,47.629883 -117.626211,47.628233 -117.607515,47.594691 -117.443654,47.51551 -117.371621,47.528707 -117.370521,47.540254</coordinates></LinearRing></outerBoundaryIs></Polygon>"
,Zip:,SPOKANE,99251,47.754,844,WA,0.21639,99251,-117.419,845,
,Zip:,PASCO,99301,46.4323,45409,WA,787.37439,99301,-118.814,44079,"<Polygon><outerBoundaryIs><LinearRing><coordinates>-118.777089,46.2904 -118.588483,46.528493 -118.228868,46.593378 -118.215672,46.588979 -118.209623,46.739094 -118.341592,46.737444 -118.85792,46.634618 -118.928853,46.545539 -119.049274,46.419069 -119.215885,46.498251 -119.252176,46.476256 -119.262074,46.271704 -118.933252,46.124889 -118.637972,46.227165 -118.634672,46.296448</coordinates></LinearRing></outerBoundaryIs></Polygon>"
,Zip:,BENTON CITY,99320,46.2672,8404,WA,143.08965,99320,-119.508,8221,"<Polygon><outerBoundaryIs><LinearRing><coordinates>-119.368199,46.264556 -119.416038,46.379479 -119.591446,46.37453 -119.70142,46.188674 -119.518314,46.24696 -119.390194,46.157331 -119.343455,46.232113</coordinates></LinearRing></outerBoundaryIs></Polygon>"
,Zip:,BEVERLY,99321,46.8585,650,WA,31.55578,99321,-119.879,620,"<Polygon><outerBoundaryIs><LinearRing><coordinates>-119.921918,46.815526 -119.791599,46.832022 -119.959309,46.889758</coordinates></LinearRing></outerBoundaryIs></Polygon>"
,Zip:,BICKLETON,99322,45.9306,284,WA,306.80234,99322,-120.131,275,"<Polygon><outerBoundaryIs><LinearRing><coordinates>-119.969757,46.040759 -120.331021,46.041309 -120.340369,46.041309 -120.460791,45.99347 -120.162211,45.78012 -119.929616,45.835107 -119.868031,45.843905 -119.867481,45.880197</coordinates></LinearRing></outerBoundaryIs></Polygon>"
,Zip:,BURBANK,99323,46.2306,608,WA,12.23339,99323,-118.909,685,
,Zip:,COLLEGE PLACE,99324,46.0422,8033,WA,4.85606,99324,-118.404,8026,
,Zip:,CONNELL,99326,46.689,3756,WA,216.9075,99326,-118.769,3669,"<Polygon><outerBoundaryIs><LinearRing><coordinates>-118.341592,46.737444 -118.51755,46.736894 -118.73035,46.735794 -119.143852,46.657163 -118.85792,46.634618</coordinates></LinearRing></outerBoundaryIs></Polygon>"
,Zip:,DAYTON,99328,46.198,3545,WA,486.87104,99328,-117.869,3543,"<Polygon><outerBoundaryIs><LinearRing><coordinates>-117.612464,46.185374 -117.861005,46.338238 -117.723538,46.364082 -118.016069,46.430067 -118.131541,46.295348 -118.022117,46.2893 -118.116695,46.243111 -117.991325,46.207919 -117.996823,46.000618 -117.977578,46.000618 -117.603116,45.998969</coordinates></LinearRing></outerBoundaryIs></Polygon>"
,Zip:,ELTOPIA,99330,46.4876,910,WA,68.84864,99330,-119.06,896,"<Polygon><outerBoundaryIs><LinearRing><coordinates>-119.049274,46.419069 -118.928853,46.545539 -119.215885,46.498251</coordinates></LinearRing></outerBoundaryIs></Polygon>"
,Zip:,KENNEWICK,99336,46.2134,39464,WA,13.01814,99336,-119.18,39146,"<Polygon><outerBoundaryIs><LinearRing><coordinates>-119.099313,46.212318 -119.223033,46.238712 -119.242279,46.209019 -119.159248,46.198021</coordinates></LinearRing></outerBoundaryIs></Polygon>"
,Zip:,KENNEWICK,99337,46.065,26141,WA,188.44151,99337,-119.106,25812,"<Polygon><outerBoundaryIs><LinearRing><coordinates>-118.959096,46.030861 -119.099313,46.212318 -119.159248,46.198021 -119.249977,45.947281</coordinates></LinearRing></outerBoundaryIs></Polygon>"
,Zip:,KENNEWICK,99338,46.07,8086,WA,185.65761,99338,-119.322,7701,"<Polygon><outerBoundaryIs><LinearRing><coordinates>-119.249977,45.947281 -119.159248,46.198021 -119.242279,46.209019 -119.343455,46.232113 -119.390194,46.157331 -119.455079,46.054505 -119.40504,45.923086 -119.298915,45.935733 -119.297816,45.935733</coordinates></LinearRing></outerBoundaryIs></Polygon>"
,Zip:,LIND,99341,46.9065,889,WA,321.47423,99341,-118.701,873,"<Polygon><outerBoundaryIs><LinearRing><coordinates>-118.51755,46.736894 -118.482358,46.898006 -118.7309,47.078913 -118.938751,47.042622 -118.877165,46.961241 -118.98274,46.911203 -118.733649,46.910103 -118.804032,46.806728 -118.73035,46.735794</coordinates></LinearRing></outerBoundaryIs></Polygon>"
,Zip:,MESA,99343,46.5845,2928,WA,176.78448,99343,-119.116,2904,"<Polygon><outerBoundaryIs><LinearRing><coordinates>-118.928853,46.545539 -118.85792,46.634618 -119.143852,46.657163 -119.378647,46.594478 -119.252176,46.476256 -119.215885,46.498251</coordinates></LinearRing></outerBoundaryIs></Polygon>"
,Zip:,OTHELLO,99344,46.8124,14214,WA,521.12908,99344,-119.145,13972,"<Polygon><outerBoundaryIs><LinearRing><coordinates>-118.73035,46.735794 -118.804032,46.806728 -118.733649,46.910103 -118.98274,46.911203 -119.267023,46.985435 -119.512265,46.960691 -119.369299,46.817175 -119.368749,46.678058 -119.451779,46.679158 -119.378647,46.594478 -119.143852,46.657163</coordinates></LinearRing></outerBoundaryIs></Polygon>"
,Zip:,PATERSON,99345,45.9228,219,WA,71.60562,99345,-119.788,212,"<Polygon><outerBoundaryIs><LinearRing><coordinates>-119.868031,45.843905 -119.592546,45.933534 -119.602994,45.941232 -119.866931,46.014915 -119.867481,45.880197</coordinates></LinearRing></outerBoundaryIs></Polygon>"
,Zip:,PLYMOUTH,99346,45.9836,91,WA,62.8869,99346,-119.521,88,"<Polygon><outerBoundaryIs><LinearRing><coordinates>-119.40504,45.923086 -119.455079,46.054505 -119.602444,46.042958 -119.602994,45.941232 -119.592546,45.933534</coordinates></LinearRing></outerBoundaryIs></Polygon>"
,Zip:,POMEROY,99347,46.4268,2520,WA,934.67957,99347,-117.619,2525,"<Polygon><outerBoundaryIs><LinearRing><coordinates>-117.723538,46.364082 -117.861005,46.338238 -117.612464,46.185374 -117.603116,45.998969 -117.479945,45.997869 -117.472247,46.391026 -117.228655,46.462509 -117.431007,46.658263 -117.469498,46.700053 -118.121094,46.519146 -118.016069,46.430067</coordinates></LinearRing></outerBoundaryIs></Polygon>"
,Zip:,PRESCOTT,99348,46.4255,1717,WA,405.18781,99348,-118.448,1591,"<Polygon><outerBoundaryIs><LinearRing><coordinates>-118.588483,46.528493 -118.777089,46.2904 -118.634672,46.296448 -118.293753,46.293149 -118.185979,46.293699 -118.228868,46.593378</coordinates></LinearRing></outerBoundaryIs></Polygon>"
,Zip:,MATTAWA,99349,46.7433,5984,WA,317.09361,99349,-119.686,5612,"<Polygon><outerBoundaryIs><LinearRing><coordinates>-119.899923,46.635168 -119.451779,46.679158 -119.368749,46.678058 -119.369299,46.817175 -119.791599,46.832022 -119.921918,46.815526</coordinates></LinearRing></outerBoundaryIs></Polygon>"
,Zip:,PROSSER,99350,46.1955,12318,WA,584.98384,99350,-119.717,12109,"<Polygon><outerBoundaryIs><LinearRing><coordinates>-119.866381,46.040759 -119.969757,46.040759 -119.867481,45.880197 -119.866931,46.014915 -119.602994,45.941232 -119.602444,46.042958 -119.455079,46.054505 -119.390194,46.157331 -119.518314,46.24696 -119.70142,46.188674 -119.591446,46.37453 -119.7872,46.444913 -119.800397,46.62912 -119.874079,46.62692 -119.874629,46.517496 -119.874079,46.305796 -119.866931,46.196372</coordinates></LinearRing></outerBoundaryIs></Polygon>"
,Zip:,RICHLAND,99352,46.2902,40402,WA,42.64049,99352,-119.301,39874,"<Polygon><outerBoundaryIs><LinearRing><coordinates>-119.343455,46.232113 -119.242279,46.209019 -119.223033,46.238712 -119.268123,46.409721 -119.398992,46.370681 -119.368199,46.264556</coordinates></LinearRing></outerBoundaryIs></Polygon>"
,Zip:,WEST RICHLAND,99353,46.3155,10061,WA,23.02985,99353,-119.375,9525,"<Polygon><outerBoundaryIs><LinearRing><coordinates>-119.398992,46.370681 -119.416038,46.379479 -119.368199,46.264556</coordinates></LinearRing></outerBoundaryIs></Polygon>"
,Zip:,ROOSEVELT,99356,45.8472,245,WA,296.04577,99356,-120.415,237,<Polygon><outerBound
,Zip:,ROYAL CITY,99357,46.9127,3862,WA,222.3797,99357,-119.682,3736,"<Polygon><outerBoundaryIs><LinearRing><coordinates>-119.959309,46.889758 -119.791599,46.832022 -119.369299,46.817175 -119.512265,46.960691 -119.556804,47.030525 -119.979655,46.979937</coordinates></LinearRing></outerBoundaryIs></Polygon>"
,Zip:,TOUCHET,99360,46.1013,1492,WA,267.73767,99360,-118.71,1468,"<Polygon><outerBoundaryIs><LinearRing><coordinates>-118.586834,46.028112 -118.471361,46.122139 -118.637972,46.227165 -118.933252,46.124889 -118.862319,46.059454 -118.977791,46.000068 -118.789736,46.001168 -118.590683,46.000618 -118.43562,46.000618</coordinates></LinearRing></outerBoundaryIs></Polygon>"
,Zip:,WAITSBURG,99361,46.2814,2419,WA,316.26368,99361,-118.15,2385,"<Polygon><outerBoundaryIs><LinearRing><coordinates>-117.991325,46.207919 -118.116695,46.243111 -118.022117,46.2893 -118.131541,46.295348 -118.016069,46.430067 -118.121094,46.519146 -118.215672,46.588979 -118.228868,46.593378 -118.185979,46.293699 -118.293753,46.293149 -118.30695,46.166129 -118.078204,46.000618 -117.996823,46.000618</coordinates></LinearRing></outerBoundaryIs></Polygon>"
,Zip:,WALLA WALLA,99362,46.1356,38558,WA,324.27077,99362,-118.373,38413,"<Polygon><outerBoundaryIs><LinearRing><coordinates>-118.471361,46.122139 -118.586834,46.028112 -118.43562,46.000618 -118.078204,46.000618 -118.30695,46.166129 -118.293753,46.293149 -118.634672,46.296448 -118.637972,46.227165</coordinates></LinearRing></outerBoundaryIs></Polygon>"
,Zip:,WASHTUCNA,99371,46.8614,471,WA,331.65411,99371,-118.236,475,"<Polygon><outerBoundaryIs><LinearRing><coordinates>-118.209623,46.739094 -117.997923,46.823224 -118.004521,46.845219 -118.171132,46.887009 -118.029266,46.912853 -118.032565,46.991484 -118.122743,47.05197 -118.300901,46.957392 -118.204124,46.903505 -118.482358,46.898006 -118.51755,46.736894 -118.341592,46.737444</coordinates></LinearRing></outerBoundaryIs></Polygon>"
,Zip:,ANATONE,99401,46.1298,165,WA,76.29064,99401,-117.041,163,"<Polygon><outerBoundaryIs><LinearRing><coordinates>-117.126929,46.042408 -116.924577,46.165029 -117.015855,46.24476 -117.145075,46.133687</coordinates></LinearRing></outerBoundaryIs></Polygon>"
,Zip:,ASOTIN,99402,46.1847,1399,WA,192.50536,99402,-117.101,1386,<Polygon><outerBound
,Zip:,CLARKSTON,99403,46.2197,18992,WA,392.40979,99403,-117.293,19056,"<Polygon><outerBoundaryIs><LinearRing><coordinates>-117.126929,46.042408 -117.145075,46.133687 -117.28969,46.16118 -117.261097,46.269505 -117.059295,46.348136 -117.040049,46.426767 -117.0395,46.433916 -117.20831,46.450962 -117.228655,46.462509 -117.472247,46.391026 -117.479945,45.997869 -117.187964,45.998419</coordinates></LinearRing></outerBoundaryIs></Polygon>"
